URL,ADDRESS,ZIP_CODE,LAT_LON,CITY_STATE,LOCATION
http://www.redfin.com/VA/Arlington/1830-Columbia-Pike-22204/unit-205/home/11272669,1830 Columbia Pike #205,'222040000,38.8649114&-77.0760334,"Arlington, va",Lancaster Condominiums
http://www.redfin.com/VA/Arlington/4139-S-Four-Mile-Run-Dr-22204/unit-204/home/21971541,4139 Four Mile Run Dr S #204,'222040000,38.85081965&-77.09750803,"Arlington, va",West Village At Shirlington
http://www.redfin.com/VA/Arlington/3600-S-Glebe-Rd-22202/unit-432W/home/12042691,3600 S Glebe Rd Unit 432W,'222020000,38.8422316&-77.0516627,"Arlington, va",Eclipse On Center
http://www.redfin.com/VA/Arlington/4141-S-Four-Mile-Run-Dr-22204/unit-103/home/23385384,4141 Four Mile Run Dr #103,'222040000,38.8504067&-77.097965,"Arlington, va",West Village Of Shirlington
http://www.redfin.com/VA/Arlington/2909-S-Woodley-St-22206/unit-116-13/home/11267504,2909-F Woodley St S Unit 116-13,'222060000,38.8414273&-77.0960413,"Arlington, va",Courtbridge I&ii
http://www.redfin.com/VA/Arlington/1101-S-Arlington-Ridge-Rd-22202/unit-106/home/11274704,1101 Arlington Ridge Rd #106,'222020000,38.8635823&-77.0657803,"Arlington, va",The Representative
http://www.redfin.com/VA/Arlington/2831-S-Wakefield-St-22206/unit-D/home/11267147,2831 S Wakefield St Unit D,'222060000,38.8430515&-77.0965773,"Arlington, va",The Arlington
http://www.redfin.com/VA/Arlington/3600-S-Glebe-Rd-22202/unit-317W/home/12042626,3600 Glebe Rd S Unit 317W,'222020000,38.8422316&-77.0516627,"Arlington, va",Eclipse On Center Park
http://www.redfin.com/VA/Arlington/1300-Army-Navy-Dr-22202/unit-509/home/11275106,1300 Army Navy Dr #509,'222020000,38.8635617&-77.0669817,"Arlington, va",Horizon House
http://www.redfin.com/VA/Arlington/901-N-Monroe-St-22201/unit-1008/home/11278119,901 Monroe St N #1008,'222010000,38.8831242&-77.1026914,"Arlington, va",Virginia Square
http://www.redfin.com/VA/Arlington/4500-S-Four-Mile-Run-Dr-22204/unit-514/home/11281906,4500 Four Mile Run Dr S #514,'222040000,38.8541521&-77.1060381,"Arlington, va",The Brittany
http://www.redfin.com/VA/Arlington/4141-N-Henderson-Rd-22203/unit-804/home/11257352,4141 Henderson Rd #804,'222030000,38.8757817&-77.1093699,"Arlington, va",Hyde Park
http://www.redfin.com/VA/Arlington/2119-N-Monroe-St-22207/unit-3/home/11233188,2119 Monroe St #3,'222070000,38.896489&-77.104132,"Arlington, va",Maywood
http://www.redfin.com/VA/Arlington/1700-N-Clarendon-Blvd-22209/unit-117/home/49797926,1700 Clarendon Blvd #117,'222090000,38.8928825&-77.0779242,"Arlington, va",Gaslight Square
http://www.redfin.com/VA/Arlington/4020-20th-St-N-22207/home/11233933,4020 20th St N,'222070000,38.8944718&-77.10875,"Arlington, va",Cherrydale
http://www.redfin.com/VA/Arlington/2050-N-Calvert-St-22201/unit-408/home/11279735,2050 N Calvert St Apt 408,'222010000,38.8974418&-77.0932656,"Arlington, va",
http://www.redfin.com/VA/Arlington/2030-N-Adams-St-22201/unit-1210/home/11247033,2030 Adams St #1210,'222010000,38.8976118&-77.0896071,"Arlington, va",Circle
http://www.redfin.com/VA/Arlington/2001-15th-St-N-22201/unit-413/home/12041203,2001 15th St N #413,'222010000,38.8911907&-77.0818047,"Arlington, va",Odyssey
http://www.redfin.com/VA/Arlington/1110-S-Barton-St-22204/unit-309/home/11272883,1110 Barton St #309,'222040000,38.8615459&-77.08366,"Arlington, va",Arlington Village
http://www.redfin.com/VA/Arlington/1020-N-Highland-St-22201/unit-707/home/16897789,1020 Highland St N #707,'222010000,38.8848595&-77.0951384,"Arlington, va",The Pheonix
http://www.redfin.com/VA/Arlington/3000-Spout-Run-Pkwy-22201/unit-B601/home/11247275,3000 Spout Run Pkwy Unit B601,'222010000,38.896264&-77.0943045,"Arlington, va",Cardinal House
http://www.redfin.com/VA/Arlington/1811-14th-St-N-22209/unit-103/home/28681872,1811 14th St N Apt 103,'222090000,38.8901561&-77.0795,"Arlington, va",
http://www.redfin.com/VA/Arlington/2030-N-Adams-St-22201/unit-606/home/11246960,2030 Adams St N #606,'222010000,38.8976118&-77.0896071,"Arlington, va",The Circle Condominium
http://www.redfin.com/VA/Arlington/3121-17th-St-S-22204/home/11273756,3121 17th St S,'222040000,38.8558098&-77.0877377,"Arlington, va",Laurel Place
http://www.redfin.com/VA/Arlington/1600-N-Oak-St-22209/unit-728/home/11251057,1600 N Oak St Apt 728,'222090000,38.8925121&-77.0738352,"Arlington, va",
http://www.redfin.com/VA/Arlington/2720-S-Arlington-Mill-Dr-22206/unit-306/home/12042353,2720 S Arlington Mill Dr Unit 306,'222060000,38.8419412&-77.0899621,"Arlington, va",
http://www.redfin.com/VA/Alexandria/3313-Wyndham-Cir-22302/unit-4205/home/11876786,3313 Wyndham Cir #4205,'223020000,38.8352728&-77.1010704,"Alexandria, va",Pointe At Park C
http://www.redfin.com/VA/Arlington/4805-28th-St-S-22206/home/11267825,4805 28th St S,'222060000,38.8419913&-77.1018333,"Arlington, va",Fairlington Villages
http://www.redfin.com/VA/Arlington/4646-28th-Rd-S-22206/unit-A/home/11267036,4646-A 28th Rd S Unit A,'222060000,38.8426595&-77.0985569,"Arlington, va",The Arlington
http://www.redfin.com/VA/Arlington/2600-S-Arlington-Mill-Dr-22206/unit-C/home/142975846,2600 Arlington Mill Dr S Unit C,'222060000,38.8439661&-77.0945237,"Arlington, va",Windgate Of Arlington Iii
http://www.redfin.com/VA/Arlington/4323-35th-St-S-22206/home/11270394,4323 35th St S,'222060000,38.8316574&-77.0888905,"Arlington, va",Fairlington Mdws
http://www.redfin.com/VA/Arlington/3650-S-Glebe-Rd-22202/unit-148/home/16896939,3650 Glebe Rd #148,'222020000,38.8422531&-77.0506468,"Arlington, va",Eclipse On Center Park Condo
http://www.redfin.com/VA/Arlington/706-15th-St-S-22202/unit-5-E-1/home/11275537,706 15th St S #1,'222020000,38.859284&-77.058402,"Arlington, va",Southampton
http://www.redfin.com/VA/Arlington/2873-S-Abingdon-St-22206/unit-B1/home/11266819,2873 Abingdon St S Unit B1,'222060000,38.8407424&-77.0979322,"Arlington, va",Fairlington
http://www.redfin.com/VA/Arlington/4437-36th-St-S-22206/unit-A1/home/11269816,4437 36th St S Apt A1,'222060000,38.8317651&-77.0905349,"Arlington, va",
http://www.redfin.com/VA/Arlington/3404-25th-St-S-22206/unit-41/home/11272309,3404 25th St S Apt 41,'222060000,38.845243&-77.084441,"Arlington, va",
http://www.redfin.com/VA/Arlington/2200-N-Westmoreland-St-22213/unit-231/home/143216439,2200 Westmoreland St N #231,'222130000,38.8862777&-77.162736,"Arlington, va",Westlee
http://www.redfin.com/VA/Arlington/1001-N-Vermont-St-22201/unit-607/home/11280175,1001 Vermont St N #607,'222010000,38.8828742&-77.1143324,"Arlington, va",Westview
http://www.redfin.com/VA/Arlington/900-N-Taylor-St-22203/unit-1627/home/11246661,900 N Taylor St Apt 1627,'222030000,38.8811585&-77.1133023,"Arlington, va",
http://www.redfin.com/VA/Arlington/1021-N-Garfield-St-22201/unit-429/home/11281285,1021 Garfield St #429,'222010000,38.8854624&-77.0932922,"Arlington, va",Clarendon 1021
http://www.redfin.com/VA/Arlington/880-N-Pollard-St-22203/unit-925/home/11280667,880 Pollard St N #925,'222030000,38.8809516&-77.1069293,"Arlington, va",Ballston 880
http://www.redfin.com/VA/Arlington/2429-S-Walter-Reed-Dr-22206/unit-17-9/home/11267687,2429 Walter Reed Dr Unit 17-9,'222060000,38.844655&-77.0977723,"Arlington, va",Heatherlea
http://www.redfin.com/VA/Arlington/4343-Lee-Hwy-22207/unit-305/home/11233382,4343 Lee Hwy #305,'222070000,38.8977863&-77.1149104,"Arlington, va",Yorktown
http://www.redfin.com/VA/Arlington/1015-N-George-Mason-Dr-22205/home/11235861,1015 George Mason Dr,'222050000,38.8829629&-77.122272,"Arlington, va",Westwind
http://www.redfin.com/VA/Arlington/900-N-Taylor-St-22203/unit-1431/home/11246623,900 Taylor St #1431,'222030000,38.8811585&-77.1133023,"Arlington, va",The Jefferson
http://www.redfin.com/VA/Arlington/2200-N-Westmoreland-St-22213/unit-231/home/12040687,2200 N Westmoreland St Unit 231,'222130000,38.8862777&-77.162736,"Arlington, va",
http://www.redfin.com/VA/Arlington/1109-N-Vernon-St-22201/home/11244216,1109 Vernon St,'222010000,38.884057&-77.115733,"Arlington, va",Vernon Corner
http://www.redfin.com/VA/Arlington/4201-Lee-Hwy-22207/unit-704/home/11233485,4201 Lee Hwy #704,'222070000,38.8972373&-77.1124791,"Arlington, va",Stoneridge Knoll
http://www.redfin.com/VA/Arlington/2200-N-Westmoreland-St-22213/unit-417/home/12040737,2200 N Westmoreland St #417,'222130000,38.8862777&-77.162736,"Arlington, va",Westlee Condo
http://www.redfin.com/VA/Arlington/900-N-Taylor-St-22203/unit-1609/home/11246649,900 Taylor St #1609,'222030000,38.8811585&-77.1133023,"Arlington, va",The Jefferson
http://www.redfin.com/VA/Arlington/4201-Lee-Hwy-22207/unit-803/home/11233494,4201 Lee Hwy #408,'222070000,38.8972373&-77.1124791,"Arlington, va",Stone Ridge Knoll
http://www.redfin.com/VA/Arlington/5220-11th-St-S-22204/home/11265151,5220 11th St S,'222040000,38.8511847&-77.1156887,"Arlington, va",
http://www.redfin.com/VA/Arlington/5933-1st-St-N-22203/home/11241400,5933 1st St N,'222030000,38.8673063&-77.135738,"Arlington, va",Spy Hill Blvd Manor
http://www.redfin.com/VA/Arlington/1336-N-Ode-St-22209/unit-3/home/11251962,1336 Ode St #3,'222090000,38.8902222&-77.0760213,"Arlington, va",Westmoreland Terrace
http://www.redfin.com/VA/Arlington/2100-Lee-Hwy-22201/unit-321/home/11249870,2100 Lee Hwy #321,'222010000,38.8958533&-77.0836163,"Arlington, va",Arlington
http://www.redfin.com/VA/Arlington/1111-19th-St-N-22209/unit-2001/home/16898372,1111 19th St N #2001,'222090000,38.897304&-77.069227,"Arlington, va",Waterview
http://www.redfin.com/VA/Arlington/1021-Arlington-Blvd-22209/unit-1026/home/11254048,1021 Arlington Blvd #1026,'222090000,38.8930028&-77.0689457,"Arlington, va",River Place
http://www.redfin.com/VA/Arlington/231-N-Thomas-St-22203/unit-304/home/11281556,231 Thomas St #304,'222030000,38.8718069&-77.1052714,"Arlington, va",The Gatehouse Condo
http://www.redfin.com/VA/Arlington/2600-16th-St-S-22204/unit-714/home/11273051,2600 16th St S #714,'222040000,38.8572047&-77.0830238,"Arlington, va",Arlington Village Courtyard
http://www.redfin.com/VA/Arlington/4923-7th-Rd-S-22204/home/11259602,4923 7th Rd S,'222040000,38.8598498&-77.115834,"Arlington, va",
http://www.redfin.com/VA/Arlington/820-N-Pollard-St-22203/unit-515/home/12040926,820 Pollard St #515,'222030000,38.8803547&-77.106745,"Arlington, va",The Hawthorn
http://www.redfin.com/VA/Arlington/4512-28th-Rd-S-22206/unit-11-13/home/11267788,4512-C 28th Rd S Unit 11-13,'222060000,38.8447768&-77.0963392,"Arlington, va",Heatherlea
http://www.redfin.com/VA/Arlington/2657-S-Walter-Reed-Dr-22206/unit-B/home/11268024,2657 Walter Reed Dr Unit B,'222060000,38.8413406&-77.1047337,"Arlington, va",The Arlington
http://www.redfin.com/VA/Arlington/4502-34th-St-S-22206/home/11269930,4502 34th St S,'222060000,38.8339324&-77.0901395,"Arlington, va",Fairlington Arbor
http://www.redfin.com/VA/Arlington/900-N-Taylor-St-22203/unit-1220/home/11246595,900 Taylor St #1220,'222030000,38.8811585&-77.1133023,"Arlington, va",The Jefferson
http://www.redfin.com/VA/Arlington/1811-14th-St-N-22209/unit-C103/home/142516545,1811 14th St N Unit C103,'222090000,38.8901561&-77.0795,"Arlington, va",Rhodes Hill Square
http://www.redfin.com/VA/Arlington/820-N-Pollard-St-22203/unit-408/home/12040904,820 Pollard St N #408,'222030000,38.8803547&-77.106745,"Arlington, va",The Hawthorn
http://www.redfin.com/VA/Arlington/1205-N-Garfield-St-22201/unit-405/home/11281042,1205 Garfield St #405,'222010000,38.8869788&-77.0934489,"Arlington, va",Station Square
http://www.redfin.com/VA/Arlington/1530-Key-Blvd-22209/unit-411/home/11250437,1530 Key Blvd #411,'222090000,38.8957709&-77.0760286,"Arlington, va",The Atrium
http://www.redfin.com/VA/Arlington/2100-Lee-Hwy-22201/unit-234/home/11249836,2100 Lee Hwy #234,'222010000,38.8958533&-77.0836163,"Arlington, va",Astoria
http://www.redfin.com/VA/Arlington/2100-Lee-Hwy-22201/unit-517/home/11249964,2100 Lee Hwy #517,'222010000,38.8958533&-77.0836163,"Arlington, va",Astoria
http://www.redfin.com/VA/Arlington/5005-10th-St-S-22204/unit-6/home/11265107,5005 10th St S #6,'222040000,38.8539217&-77.1125468,"Arlington, va",Frederick Courts
http://www.redfin.com/VA/Arlington/2930-S-Buchanan-St-22206/unit-A2/home/11268789,2930 Buchanan St S Unit A2,'222060000,38.838158&-77.0998928,"Arlington, va",Fairlington Villages
http://www.redfin.com/VA/Arlington/5101-8th-Rd-S-22204/unit-414/home/11259174,5101 8th Rd S #414,'222040000,38.8577209&-77.1166132,"Arlington, va",Columbia Knolls
http://www.redfin.com/VA/Arlington/5224-8th-Rd-S-22204/unit-3/home/11281671,5224 8th Rd S #3,'222040000,38.8564451&-77.1181442,"Arlington, va",Arlington Heights
http://www.redfin.com/VA/Arlington/5001-7th-Rd-S-22204/unit-202/home/11259552,5001 7th Rd S #202,'222040000,38.8596096&-77.1165052,"Arlington, va",Park Spring
http://www.redfin.com/VA/Alexandria/1225-Martha-Custis-Dr-22302/unit-1502/home/11863235,1225 Martha Custis Dr #1502,'223020000,38.8425075&-77.0801094,"Alexandria, va",Parkeast
http://www.redfin.com/VA/Arlington/3079-S-Buchanan-St-22206/unit-B1/home/11269200,3079 Buchanan St S Unit B1,'222060000,38.8368553&-77.0969683,"Arlington, va",Fairlington Villages
http://www.redfin.com/VA/Arlington/3346-S-Wakefield-St-22206/unit-A2/home/11269452,3346 Wakefield St Unit A2,'222060000,38.8353342&-77.0913919,"Arlington, va",Fairlington Commons
http://www.redfin.com/VA/Alexandria/1225-Martha-Custis-Dr-22302/unit-1612/home/11863265,1225 Martha Custis Dr #1612,'223020000,38.8425075&-77.0801094,"Alexandria, va",Parkeast
http://www.redfin.com/VA/Arlington/2015-S-Oakland-St-22204/home/11271663,2015 Oakland St,'222040000,38.850935&-77.091511,"Arlington, va",Malick
http://www.redfin.com/VA/Arlington/2200-N-Westmoreland-St-22213/unit-317/home/12040705,2200 Westmoreland St N #317,'222130000,38.8862777&-77.162736,"Arlington, va",Westlee
http://www.redfin.com/VA/Falls-Church/3101-S-Manchester-St-22044/unit-516/home/9570397,3101 Manchester St #516,'220440000,38.8630731&-77.1348012,"Falls Church, va",Woodlake Towers
http://www.redfin.com/VA/Arlington/1061-N-Nelson-St-22201/home/11245258,1061 Nelson St N,'222010000,38.8857472&-77.1051806,"Arlington, va",N/a
http://www.redfin.com/VA/Arlington/4141-N-Henderson-Rd-22203/unit-920/home/11257396,4141 Henderson Rd #920,'222030000,38.8757817&-77.1093699,"Arlington, va",Hyde Park
http://www.redfin.com/VA/Arlington/1205-N-Garfield-St-22201/unit-608/home/11281067,1205 Garfield St N #608,'222010000,38.8869788&-77.0934489,"Arlington, va",Station Square
http://www.redfin.com/VA/Falls-Church/6001-Arlington-Blvd-22044/unit-914/home/9569127,6001 Arlington Blvd #914,'220440000,38.865167&-77.137584,"Falls Church, va",Woodlake Towers
http://www.redfin.com/VA/Arlington/1121-Arlington-Blvd-22209/unit-604/home/113532210,1121 Arlington Blvd #604,'222090000,38.8936298&-77.0699433,"Arlington, va",River Place
http://www.redfin.com/VA/Arlington/1111-19th-St-N-22209/unit-2008/home/16898366,1111 19th St N Apt 2008,'222090000,38.897304&-77.069227,"Arlington, va",
http://www.redfin.com/VA/Arlington/1201-N-Nash-St-22209/unit-402/home/11279041,1201 Nash St N #402,'222090000,38.8884264&-77.0717771,"Arlington, va",Rosslyn
http://www.redfin.com/VA/Arlington/1300-S-Arlington-Ridge-Rd-22202/unit-609/home/11275454,1300 Arlington Ridge Rd #609,'222020000,38.8617088&-77.0670175,"Arlington, va",The Cavendish
http://www.redfin.com/VA/Arlington/1805-Crystal-Dr-22202/unit-908S/home/11274185,1805 Crystal Dr Unit 908S,'222020000,38.8564251&-77.0485576,"Arlington, va",Crystal Park Condo
http://www.redfin.com/VA/Arlington/1805-Crystal-Dr-22202/unit-803S/home/11274162,1805 Crystal Dr Unit 803S,'222020000,38.8564251&-77.0485576,"Arlington, va",Crystal Park Condos - South
http://www.redfin.com/VA/Alexandria/1225-Martha-Custis-Dr-22302/unit-415/home/11863047,1225 Martha Custis Dr #415,'223020000,38.8425075&-77.0801094,"Alexandria, va",Parkeast
http://www.redfin.com/VA/Arlington/4724-29th-St-S-22206/unit-C2/home/11268595,4724 29th St S Unit C2,'222060000,38.8390683&-77.0993685,"Arlington, va",Fairlington Village
http://www.redfin.com/VA/Arlington/2819-S-Woodrow-St-22206/unit-E/home/143204072,2819-E Woodrow St S Unit E,'222060000,38.8409039&-77.0972108,"Arlington, va",Courtbridge I&ii
http://www.redfin.com/VA/Arlington/2420-S-Walter-Reed-Dr-22206/unit-1/home/81825643,2420 Walter Reed Dr #1,'222060000,38.8451799&-77.0997444,"Arlington, va",Windgate
http://www.redfin.com/VA/Arlington/4225-32nd-Rd-S-22206/unit-275/home/11269666,4225 32nd Rd S,'222060000,38.8363927&-77.0865365,"Arlington, va",Clarendon Fairlington Green
http://www.redfin.com/VA/Arlington/813-S-Quincy-St-22204/home/11261281,813 Quincy St S,'222040000,38.8619897&-77.0994345,"Arlington, va",Alcova Heights
http://www.redfin.com/VA/Arlington/1605-S-Hayes-St-22202/unit-A/home/143105003,1605 Hayes St Unit A,'222020000,38.8595915&-77.0591731,"Arlington, va",Southampton
http://www.redfin.com/VA/Arlington/3617-1st-Rd-S-22204/home/11262062,3617 1st Rd S,'222040000,38.869265&-77.098265,"Arlington, va",Glebe Manors
http://www.redfin.com/VA/Arlington/3534-S-Wakefield-St-22206/unit-N-A/home/143304508,3534 Wakefield St S,'222060000,38.8326946&-77.0923751,"Arlington, va",Fairlington Mews
http://www.redfin.com/VA/Arlington/4500-S-Four-Mile-Run-Dr-22204/unit-926/home/11282054,4500 Four Mile Run Dr #926,'222040000,38.8541521&-77.1060381,"Arlington, va",The Brittany
http://www.redfin.com/VA/Arlington/2513-Arlington-Blvd-22201/unit-101/home/142465308,2513 Arlington Blvd #101,'222010000,38.8745802&-77.086329,"Arlington, va",Cambridge Courts
http://www.redfin.com/VA/Arlington/2667-S-Walter-Reed-Dr-22206/unit-D/home/11268045,2667 Walter Reed Dr Unit D,'222060000,38.8417057&-77.105126,"Arlington, va",The Arlington
http://www.redfin.com/VA/Arlington/3650-S-Glebe-Rd-22202/unit-1047/home/16896758,3650 Glebe Rd #1047,'222020000,38.8422531&-77.0506468,"Arlington, va",The Eclipse On Center Park Condopminium
http://www.redfin.com/VA/Arlington/2819-S-Woodrow-St-22206/unit-5/home/11266718,2819 S Woodrow St #5,'222060000,38.8409039&-77.0972108,"Arlington, va",
http://www.redfin.com/VA/Falls-Church/6001-Arlington-Blvd-22044/unit-T21/home/9568675,6001 Arlington Blvd Unit T21,'220440000,38.865167&-77.137584,"Falls Church, va",Woodlake Towers
http://www.redfin.com/VA/Arlington/3601-5th-St-S-22204/unit-110/home/11260776,3601 5th St S Apt 110,'222040000,38.867181&-77.0967455,"Arlington, va",
http://www.redfin.com/VA/Arlington/1830-Columbia-Pike-22204/unit-509/home/11272721,1830 Columbia Pike #509,'222040000,38.8649114&-77.0760334,"Arlington, va",Lancaster
http://www.redfin.com/VA/Arlington/2113-N-Monroe-St-22207/unit-B/home/11233175,2113 Monroe St Unit B,'222070000,38.896489&-77.104132,"Arlington, va",Maywood Condominium
http://www.redfin.com/VA/Arlington/4201-Lee-Hwy-22207/unit-605/home/11233476,4201 Lee Hwy #605,'222070000,38.8972373&-77.1124791,"Arlington, va",Stoneridge Knoll
http://www.redfin.com/VA/Arlington/1050-N-Stuart-St-22201/unit-103/home/11244660,1050 Stuart St #103,'222010000,38.8834865&-77.112345,"Arlington, va",Ballston Park
http://www.redfin.com/VA/Arlington/1021-N-Garfield-St-22201/unit-702/home/11281401,1021 Garfield St #702,'222010000,38.8854624&-77.0932922,"Arlington, va",Clarendon
http://www.redfin.com/VA/Arlington/1021-N-Garfield-St-22201/unit-446/home/11281302,1021 Garfield St #446,'222010000,38.8854624&-77.0932922,"Arlington, va",Clarendon 1021
http://www.redfin.com/VA/Arlington/1830-Columbia-Pike-22204/unit-503/home/11272715,1830 Columbia Pike #503,'222040000,38.8649114&-77.0760334,"Arlington, va",Lancaster
http://www.redfin.com/VA/Arlington/5224-8th-Rd-S-22204/unit-7/home/11281675,5224 8th Rd S #7,'222040000,38.8564451&-77.1181442,"Arlington, va",Arlington Heights
http://www.redfin.com/VA/Arlington/2026-N-Vermont-St-22207/unit-101/home/11234926,2026-N Vermont St #101,'222070000,38.8967878&-77.1174715,"Arlington, va",Vermont Gardens
http://www.redfin.com/VA/Arlington/1205-N-Garfield-St-22201/unit-404/home/11281041,1205 Garfield St #404,'222010000,38.8869788&-77.0934489,"Arlington, va",Station Square
http://www.redfin.com/VA/Arlington/1600-N-Clarendon-Blvd-22209/unit-W202/home/16898144,1600 Clarendon Blvd Unit W202,'222090000,38.8929906&-77.0769144,"Arlington, va",Wooster & Mercer Lofts
http://www.redfin.com/VA/Arlington/2027-N-Taylor-St-22207/home/11233684,2027 N Taylor St,'222070000,38.8958038&-77.1130944,"Arlington, va",
http://www.redfin.com/VA/Arlington/122-N-Bedford-St-22201/unit-B/home/11255664,122 N Bedford St Unit B,'222010000,38.8757852&-77.0871636,"Arlington, va",
http://www.redfin.com/VA/Arlington/1200-N-Hartford-St-22201/unit-610/home/11279826,1200 Hartford St #610,'222010000,38.8880928&-77.0958773,"Arlington, va",The Hartford
http://www.redfin.com/VA/Arlington/1800-Wilson-Blvd-22201/unit-125/home/12041031,1800 Wilson Blvd #125,'222010000,38.8935703&-77.0791464,"Arlington, va",1800 Wilson
http://www.redfin.com/VA/Arlington/1200-N-Nash-St-22209/unit-543/home/11252101,1200 Nash St #543,'222090000,38.889265&-77.0728605,"Arlington, va",Prospect House
http://www.redfin.com/VA/Arlington/1530-Key-Blvd-22209/unit-722/home/11250526,1530 Key Blvd #722,'222090000,38.8957709&-77.0760286,"Arlington, va",The Atrium Condominium
http://www.redfin.com/VA/Arlington/1050-N-Taylor-St-22201/unit-1-113/home/28454905,1050 Taylor St Unit 1-113,'222010000,38.883348&-77.1131354,"Arlington, va",Windsor Plaza
http://www.redfin.com/VA/Arlington/2001-15th-St-N-22201/unit-1210/home/12041358,2001 15th St N #1210,'222010000,38.8911907&-77.0818047,"Arlington, va",Odyssey Condominium
http://www.redfin.com/VA/Arlington/1615-N-Queen-St-22209/unit-M307/home/16897699,1615 Queen St Unit M307,'222090000,38.8923335&-77.0768914,"Arlington, va",Wooster And Mercer Lofts
http://www.redfin.com/VA/Arlington/2030-N-Adams-St-22201/unit-1404/home/11247039,2030 Adams St #1404,'222010000,38.8976118&-77.0896071,"Arlington, va",Arlington
http://www.redfin.com/VA/Arlington/900-N-Taylor-St-22203/unit-905/home/11246525,900 Taylor St #905,'222030000,38.8811585&-77.1133023,"Arlington, va",The Jefferson
http://www.redfin.com/VA/Arlington/1050-N-Taylor-St-22201/unit-601/home/142422543,1050 Taylor St N #601,'222010000,38.883348&-77.1131354,"Arlington, va",Windsor Plaza
http://www.redfin.com/VA/Arlington/820-N-Pollard-St-22203/unit-104/home/12040865,820 Pollard St #104,'222030000,38.8803547&-77.106745,"Arlington, va",Hawthorn Condominium
http://www.redfin.com/VA/Arlington/1210-N-Taft-St-22201/unit-510/home/11251521,1210 Taft St N #510,'222010000,38.887926&-77.082071,"Arlington, va",Taft Towers
http://www.redfin.com/VA/Arlington/900-N-Taylor-St-22203/unit-1926/home/11246720,900 Taylor St #1926,'222030000,38.8811585&-77.1133023,"Arlington, va",The Jefferson
http://www.redfin.com/VA/Arlington/1021-N-Garfield-St-22201/unit-506/home/11281310,1021 Garfield St N #506,'222010000,38.8854624&-77.0932922,"Arlington, va",Clarendon 1021
http://www.redfin.com/VA/Arlington/4500-S-Four-Mile-Run-Dr-22204/unit-718/home/11281978,4500 Four Mile Run Dr S #718,'222040000,38.8541521&-77.1060381,"Arlington, va",The Brittany
http://www.redfin.com/VA/Arlington/3650-S-Glebe-Rd-22202/unit-651/home/143596594,3650 Glebe Rd #651,'222020000,38.8422531&-77.0506468,"Arlington, va",The Elipse
http://www.redfin.com/VA/Arlington/2909-S-Woodley-St-22206/unit-5/home/11267503,2909-E Woodley St #5,'222060000,38.8414273&-77.0960413,"Arlington, va",Courtbridge Of Arlington
http://www.redfin.com/VA/Arlington/4500-S-Four-Mile-Run-Dr-22204/unit-527/home/11281919,4500 Four Mile Run Dr S #527,'222040000,38.8541521&-77.1060381,"Arlington, va",Century South
http://www.redfin.com/VA/Arlington/4508-34th-St-S-22206/unit-1230/home/11269927,4508 34th St S,'222060000,38.8337891&-77.0901874,"Arlington, va",Fairlington Arbor
http://www.redfin.com/VA/Arlington/4500-S-Four-Mile-Run-Dr-22204/unit-522/home/11281914,4500 Four Mile Run Dr S #522,'222040000,38.8541521&-77.1060381,"Arlington, va",Century South
http://www.redfin.com/VA/Arlington/4619-28th-Rd-S-22206/unit-B/home/11266934,4619 28th Rd S Unit B,'222060000,38.8435941&-77.0990084,"Arlington, va",The Arlington
http://www.redfin.com/VA/Arlington/2050-N-Calvert-St-22201/unit-408/home/28547439,2050 Calvert St #408,'222010000,38.8974418&-77.0932656,"Arlington, va",Spout Run Terrace
http://www.redfin.com/VA/Arlington/5012-Columbia-Pike-22204/unit-4/home/11264992,5012 Columbia Pike #4,'222040000,38.8551601&-77.1131383,"Arlington, va",Frederick Courts
http://www.redfin.com/VA/Arlington/1021-N-Garfield-St-22201/unit-114/home/11281133,1021 Garfield St N #114,'222010000,38.8854624&-77.0932922,"Arlington, va",Clarendon
http://www.redfin.com/VA/Arlington/1021-N-Garfield-St-22201/unit-129/home/11281142,1021 Garfield St #129,'222010000,38.8854624&-77.0932922,"Arlington, va",Clarendon
http://www.redfin.com/VA/Arlington/4309-35th-St-S-22206/unit-613/home/11270388,4309 35th St S,'222060000,38.8315999&-77.0884631,"Arlington, va",Fairlington Meadows
http://www.redfin.com/VA/Arlington/1300-S-Arlington-Ridge-Rd-22202/unit-714/home/11275475,1300 Arlington Ridge Rd #714,'222020000,38.8617088&-77.0670175,"Arlington, va",The Cavendish
