URL,ADDRESS,ZIP_CODE,LAT_LON,CITY_STATE,LOCATION
http://www.redfin.com/DC/Washington/1911-Sudbury-Rd-NW-20012/home/10020522,1911 Sudbury Rd NW,'200120000,38.9891099&-77.0452818,"Washington, COLORADO",Colonial Village
http://www.redfin.com/DC/Washington/3108-Apple-Rd-NE-20018/unit-12/home/10107617,3108 Apple Rd NE #12,'200180000,38.9246563&-76.9623769,"Washington, DC",Fort Lincoln
http://www.redfin.com/DC/Washington/5077-8th-St-NE-20017/home/10084077,5077 8th St NE,'200170000,38.951809&-76.993629,"Washington, DC",Riggs Park
http://www.redfin.com/DC/Washington/4917-Foote-St-NE-20019/home/10127272,4917 Foote St NE,'200190000,38.8967739&-76.9307744,"Washington, DC",Deanwood
http://www.redfin.com/DC/Washington/1110-Park-Rd-NW-20010/home/10028458,1110 Park Rd NW,'200100000,38.931403&-77.028578,"Washington, DC",Columbia Heights
http://www.redfin.com/DC/Washington/2415-E-St-NE-20002/home/10113069,2415 E St NE,'200020000,38.8959265&-76.9721738,"Washington, DC",Old City #1
http://www.redfin.com/DC/Washington/4928-Sargent-Rd-NE-20017/home/10089665,4928 Sargent Rd NE,'200170000,38.9488756&-76.9898016,"Washington, DC",Riggs Park
http://www.redfin.com/DC/Washington/1004-Monroe-St-NW-20010/home/10028187,1004 Monroe St NW,'200100000,38.932566&-77.027758,"Washington, DC",Columbia Heights
http://www.redfin.com/DC/Washington/4114-Jenifer-St-NW-20015/home/9961420,4114 Jenifer St NW,'200150000,38.9588427&-77.0812489,"Washington, DC",Chevy Chase
http://www.redfin.com/DC/Washington/3642-Wright-Ter-20018/home/96361032,3642 Wright Trl NE,'200180000,38.9234053&-76.9549073,"Washington, DC",Fort Lincoln
http://www.redfin.com/DC/Washington/3100-24th-St-SE-20020/home/10160501,3100 24th St SE,'200200000,38.852865&-76.971887,"Washington, COLORADO",Randle Heights
http://www.redfin.com/DC/Washington/1853-Bruce-Pl-SE-20020/home/11745598,1853 Bruce Pl SE,'200200000,38.851689&-76.977898,"Washington, DC",Randle Heights
http://www.redfin.com/DC/Washington/1608-Crittenden-St-NE-20017/home/10100721,1608 Crittenden St NE,'200170000,38.9472823&-76.9826827,"Washington, DC",Michigan Park
http://www.redfin.com/DC/Washington/5031-Just-St-NE-20019/home/10126701,5031 Just St NE,'200190000,38.90242&-76.9289,"Washington, DC",
http://www.redfin.com/DC/Washington/3049-Clinton-St-NE-20018/home/10106418,3049 Clinton St NE,'200180000,38.9311692&-76.9643812,"Washington, DC",Woodridge
http://www.redfin.com/DC/Washington/4312-Polk-St-NE-20019/home/10121737,4312 Polk St NE,'200190000,38.909863&-76.941424,"Washington, DC",
http://www.redfin.com/DC/Washington/525-21st-St-NE-20002/home/10112705,525 21st St NE,'200020000,38.8968475&-76.9741618,"Washington, DC",
http://www.redfin.com/DC/Washington/3904-Q-St-SE-20020/home/10138501,3904 Q St SE,'200200000,38.8683152&-76.9468954,"Washington, DC",
http://www.redfin.com/DC/Washington/5402-Blaine-St-NE-20019/home/10131131,5402 Blaine St NE,'200190000,38.8916576&-76.9236449,"Washington, DC",Deanwood
http://www.redfin.com/DC/Washington/1633-11th-Pl-NE-20002/home/10094825,1633 11th Pl NE,'200020000,38.9083488&-76.9870112,"Washington, DC",
http://www.redfin.com/DC/Washington/1226-Maryland-Ave-NE-20002/home/9910154,1226 Maryland Ave NE,'200020000,38.8980724&-76.9893247,"Washington, COLORADO",Old City #1
http://www.redfin.com/DC/Washington/3109-Apple-Rd-NE-20018/unit-1/home/10107471,3109 Apple Rd NE #1,'200180000,38.9246563&-76.9623769,"Washington, DC",Fort Lincoln
http://www.redfin.com/DC/Washington/1736-S-St-SE-20020/unit-3/home/10149780,1736 S St SE,'200200000,38.868431&-76.9793231,"Washington, DC",Randle Heights
http://www.redfin.com/DC/Washington/1633-A-St-NE-20002/home/9919946,1633 A St NE,'200020000,38.8907162&-76.981077,"Washington, DC",Old City #1
http://www.redfin.com/DC/Washington/4124-20th-St-NE-20018/home/10101287,4124 20th St NE,'200180000,38.940758&-76.9764864,"Washington, DC",Michigan Park
http://www.redfin.com/DC/Washington/3301-D-St-SE-20019/home/10142337,3301 D St SE,'200190000,38.884168&-76.959569,"Washington, DC",Fort Dupont Park
http://www.redfin.com/DC/Washington/3619-18th-St-NE-20018/home/10101892,3619 18th St NE,'200180000,38.9346499&-76.9794991,"Washington, DC",Woodridge
http://www.redfin.com/DC/Washington/4247-Eads-St-NE-20019/home/10120567,4247 Eads St NE,'200190000,38.8955092&-76.9401834,"Washington, DC",Deanwood
http://www.redfin.com/DC/Washington/15-40th-St-NE-20019/home/10120006,15 40th St NE,'200190000,38.8904554&-76.9469907,"Washington, DC",Deanwood
http://www.redfin.com/DC/Washington/3233-Ely-Pl-SE-20019/home/10142450,3233 Ely Pl SE,'200190000,38.8834159&-76.960346,"Washington, DC",Fort Dupont Park
http://www.redfin.com/DC/Washington/4213-19th-Pl-NE-20018/home/10101314,4213 19th Pl NE,'200180000,38.9411886&-76.9770018,"Washington, COLORADO",Michigan Park
http://www.redfin.com/DC/Washington/823-Yuma-St-SE-20032/home/10168602,823 Yuma St SE,'200320000,38.8318092&-76.9934935,"Washington, DC",Congress Heights
http://www.redfin.com/DC/Washington/791-Barnaby-St-SE-20032/home/10170011,791 Barnaby St SE,'200320000,38.828767&-76.994821,"Washington, DC",Congress Heights
http://www.redfin.com/DC/Washington/4814-Nebraska-Ave-NW-20016/home/9962704,4814 Nebraska Ave NW,'200160000,38.953114&-77.073251,"Washington, DC",Chevy Chase
http://www.redfin.com/DC/Washington/2610-Myrtle-Ave-NE-20018/home/142292751,2610 Myrtle Ave NE,'200180000,38.9301814&-76.9694344,"Washington, DC",Woodridge
http://www.redfin.com/DC/Washington/128-57th-Pl-SE-20019/home/21645822,128 57th Pl SE,'200190000,38.8872504&-76.9186214,"Washington, DC",Deanwood
http://www.redfin.com/DC/Washington/325-17th-St-NE-20002/home/10115417,325 17th St NE,'200020000,38.8941311&-76.9804731,"Washington, DC",Old City #1
http://www.redfin.com/DC/Washington/3968-Georgetown-Ct-NW-20007/home/9936965,3968 Georgetown Ct NW,'200070000,38.9133284&-77.0759169,"Washington, DC",Burleith
http://www.redfin.com/DC/Washington/1515-3rd-St-NW-20001/home/9887124,1515 3rd St NW,'200010000,38.910103&-77.01484,"Washington, DC",Old City #2
http://www.redfin.com/DC/Washington/612-3rd-St-SE-20003/home/10186402,612 3rd St SE,'200030000,38.881711&-77.001565,"Washington, DC",Capitol Hill
http://www.redfin.com/DC/Washington/849-51st-St-NE-20019/home/10128141,849 51st St NE,'200190000,38.9012727&-76.9264561,"Washington, COLORADO",Deanwood
http://www.redfin.com/DC/Washington/3532-11th-St-NW-20010/home/10027364,3532 11th St NW,'200100000,38.9335201&-77.0287563,"Washington, DC",Columbia Heights
http://www.redfin.com/DC/Washington/3711-Winfield-Ln-NW-20007/home/9932172,3711 Winfield Ln NW,'200070000,38.9121786&-77.0724747,"Washington, DC",Georgetown
http://www.redfin.com/DC/Washington/1230-Rhode-Island-Ave-NE-20018/home/10090929,1230 Rhode Island Ave NE,'200180000,38.9238584&-76.9887077,"Washington, DC",Brookland
http://www.redfin.com/DC/Washington/436-M-St-NW-20001/unit-2/home/9884469,436 M St NW #2,'200010000,38.9053064&-77.0177791,"Washington, DC",Shaw/mt. Vernon Sq.
http://www.redfin.com/DC/Washington/2735-4th-St-NE-20002/home/10076034,2735 4th St NE,'200020000,38.924935&-77.0002052,"Washington, DC",Brookland
http://www.redfin.com/DC/Washington/502-12th-St-NE-20002/home/9908241,502 12th St NE,'200020000,38.8963149&-76.9905083,"Washington, DC",Capitol Hill
http://www.redfin.com/DC/Washington/508-F-St-NE-20002/home/9896682,508 F St NE,'200020000,38.8975118&-76.9991028,"Washington, DC",Capitol Hill
http://www.redfin.com/DC/Washington/2833-31st-Pl-NE-20018/home/10106750,2833 31st Pl NE #2833,'200180000,38.924766&-76.960334,"Washington, DC",Fort Lincoln
http://www.redfin.com/DC/Washington/2232-Decatur-Pl-NW-20008/home/9997622,2232 Decatur Pl NW,'200080000,38.9132254&-77.049931,"Washington, DC",Kalorama
http://www.redfin.com/DC/Washington/4816-Hayes-St-NE-20019/home/10124389,4816 Hayes St NE,'200190000,38.8999333&-76.9330177,"Washington, COLORADO",Deanwood
http://www.redfin.com/DC/Washington/2803-Sherman-Ave-NW-20001/unit-1/home/128010904,2803 Sherman Ave NW #1,'200010000,38.9260506&-77.0255781,"Washington, DC",Columbia Heights
http://www.redfin.com/DC/Washington/2422-3rd-St-NE-20002/home/10074503,2422 3rd St NE,'200020000,38.921969&-77.0023071,"Washington, DC",Brookland
http://www.redfin.com/DC/Washington/1255-C-St-SE-20003/home/9911978,1255 C St SE,'200030000,38.885186&-76.9888647,"Washington, DC",Old City #1
http://www.redfin.com/DC/Washington/774-Girard-St-NW-20001/unit-7W/home/108155278,774 Girard St NW Unit 7W,'200010000,38.9259272&-77.0251889,"Washington, DC",Columbia Heights
http://www.redfin.com/DC/Washington/908-O-St-NW-20001/home/9877785,908 O St NW,'200010000,38.908343&-77.024445,"Washington, DC",Shaw
http://www.redfin.com/DC/Washington/1015-9th-St-NE-20002/home/9903872,1015 9th St NE,'200020000,38.903266&-76.9935287,"Washington, DC",H Street
http://www.redfin.com/DC/Washington/1721-U-St-NW-20009/home/9857014,1721 U St NW,'200090000,38.917221&-77.039291,"Washington, DC",Dupont
http://www.redfin.com/DC/Washington/1236-Owen-Pl-NE-20002/home/10095559,1236 Owen Pl NE,'200020000,38.9056302&-76.9865622,"Washington, DC",Trinidad
http://www.redfin.com/DC/Washington/913-11th-St-NE-20002/home/9907743,913 11th St NE,'200020000,38.9017951&-76.9912759,"Washington, DC",Old City #1
http://www.redfin.com/DC/Washington/2952-13th-St-NE-20017/home/10090745,2952 13th St NE,'200170000,38.9271325&-76.9884909,"Washington, DC",Brookland
http://www.redfin.com/DC/Washington/417-Guetler-Way-SE-20003/home/142946651,417 Guetler Way SE,'200030000,38.88338858&-76.98789929,"Washington, DC",Capitol Hill
http://www.redfin.com/DC/Washington/42-Seaton-Pl-NW-20001/home/10047661,42 Seaton Pl NW,'200010000,38.9146499&-77.0106043,"Washington, DC",Bloomingdale
http://www.redfin.com/DC/Washington/914-E-Capitol-St-NE-20003/home/9904617,914 E Capitol St NE,'200030000,38.890122&-76.993127,"Washington, DC",Capitol Hill
http://www.redfin.com/DC/Washington/1233-10th-St-NW-20001/home/10176665,1233 10th St NW,'200010000,38.906838&-77.0256689,"Washington, DC",Old City #2
http://www.redfin.com/DC/Washington/2609-Wade-Rd-SE-20020/home/10160675,2609 Wade Rd SE,'200200000,38.8597895&-76.9966838,"Washington, DC",Barry Farms
http://www.redfin.com/DC/Washington/1239-Oates-St-NE-20002/home/10096271,1239 Oates St NE,'200020000,38.9048053&-76.9872323,"Washington, DC",Trinidad
http://www.redfin.com/DC/Washington/623-Kenyon-St-NW-20010/unit-2/home/142955674,623 Kenyon St NW #2,'200100000,38.9302268&-77.0220166,"Washington, DC",Columbia Heights
http://www.redfin.com/DC/Washington/5136-Linnean-Ter-NW-20008/home/9981280,5136 Linnean Ter NW,'200080000,38.9566131&-77.0677835,"Washington, DC",
http://www.redfin.com/DC/Washington/743-Irving-St-NW-20010/home/10032761,743 Irving St NW,'200100000,38.9292&-77.025019,"Washington, DC",Columbia Heights
http://www.redfin.com/DC/Washington/1204-Quincy-St-NW-20011/home/10033928,1204 Quincy St NW,'200110000,38.937359&-77.027524,"Washington, DC",Columbia Heights
http://www.redfin.com/DC/Washington/311-Jefferson-St-NW-20011/home/10063237,311 Jefferson St NW,'200110000,38.9556811&-77.0166446,"Washington, DC",Petworth
http://www.redfin.com/DC/Washington/314-Madison-St-NW-20011/home/10063117,314 Madison St NW,'200110000,38.9581745&-77.0168105,"Washington, DC",Brightwood
http://www.redfin.com/DC/Washington/4514-8th-St-NW-20011/home/10041545,4514 8th St NW,'200110000,38.945993&-77.023883,"Washington, DC",Petworth
http://www.redfin.com/DC/Washington/1305-Hamilton-St-NW-20011/home/10024760,1305 Hamilton St NW,'200110000,38.9531397&-77.0303282,"Washington, DC",16th Street Heights
http://www.redfin.com/DC/Washington/641-Gallatin-St-NW-20011/home/10057233,641 Gallatin St NW,'200110000,38.952346&-77.021561,"Washington, DC",Petworth
http://www.redfin.com/DC/Washington/816-Kennedy-St-NW-20011/unit-4/home/108579439,816 Kennedy St NW #4,'200110000,38.95599&-77.024727,"Washington, DC",Petworth
http://www.redfin.com/DC/Washington/2003-13th-St-NW-20009/home/9873633,2003 13th St NW,'200090000,38.917194&-77.029299,"Washington, DC",
http://www.redfin.com/DC/Washington/1255-Van-Buren-St-NW-20012/home/10036391,1255 Van Buren St NW,'200120000,38.9701597&-77.0289375,"Washington, DC",Brightwood
http://www.redfin.com/DC/Washington/532-Somerset-Pl-NW-20011/home/10055099,532 Somerset Pl NW,'200110000,38.9665508&-77.0212333,"Washington, DC",Brightwood
http://www.redfin.com/DC/Washington/1742-Galen-St-SE-20020/home/21648287,1742 Galen St SE,'200200000,38.8619364&-76.9800805,"Washington, DC",Anacostia
http://www.redfin.com/DC/Washington/2517-Benning-Rd-NE-20002/home/10113035,2517 Benning Rd NE,'200020000,38.8976117&-76.9707476,"Washington, DC",
http://www.redfin.com/DC/Washington/1423-New-Jersey-Ave-NW-20001/home/9887484,1423 New Jersey Ave NW,'200010000,38.9091618&-77.015772,"Washington, DC",Old City #2
http://www.redfin.com/DC/Washington/1611-Q-St-SE-20020/home/10148646,1611 Q St SE,'200200000,38.87053&-76.981652,"Washington, DC",Anacostia
http://www.redfin.com/DC/Washington/3818-Ingomar-St-NW-20015/home/9969189,3818 Ingomar St NW,'200150000,38.9581994&-77.0756112,"Washington, DC",Chevy Chase
http://www.redfin.com/DC/Washington/649-Columbia-Rd-NW-20001/home/10044821,649 Columbia Rd NW,'200010000,38.928373&-77.0224615,"Washington, DC",Columbia Heights
http://www.redfin.com/DC/Washington/7-Grant-Cir-NW-20011/unit-1/home/113861885,7 Grant Cir NW #1,'200110000,38.942841&-77.0183612,"Washington, DC",Petworth
http://www.redfin.com/DC/Washington/726-Emerson-St-NE-20017/home/10083828,726 Emerson St NE,'200170000,38.9501981&-76.9958015,"Washington, DC",Brookland
http://www.redfin.com/MD/Bethesda/4925-Crescent-St-20816/unit-B-11/home/10637423,4925 Crescent St Unit B-11,'208160000,38.9546741&-77.0955856,"Bethesda, MD",
http://www.redfin.com/DC/Washington/5621-9th-St-NW-20011/home/10039249,5621 9th St NW,'200110000,38.9579661&-77.0255817,"Washington, DC",Petworth
http://www.redfin.com/DC/Washington/515-Allison-St-NW-20011/home/10058285,515 Allison St NW,'200110000,38.9454658&-77.0200508,"Washington, DC",Petworth
http://www.redfin.com/DC/Washington/3812-Brandywine-St-NW-20016/home/9968947,3812 Brandywine St NW,'200160000,38.9495046&-77.0752265,"Washington, DC",Tenleytown
http://www.redfin.com/DC/Washington/5619-1st-St-NW-20011/home/10068926,5619 1st St NW,'200110000,38.9582029&-77.0113453,"Washington, DC",
http://www.redfin.com/DC/Washington/1317-Kennedy-St-NW-20011/home/10024279,1317 Kennedy St NW,'200110000,38.956531&-77.03089,"Washington, DC",16th Street Heights
http://www.redfin.com/DC/Washington/1623-Irving-St-NW-20010/home/10007781,1623 Irving St NW,'200100000,38.929108&-77.038089,"Washington, DC",
http://www.redfin.com/DC/Washington/6526-5th-St-NW-20012/home/10054731,6526 5th St NW,'200120000,38.9695915&-77.0201257,"Washington, DC",
http://www.redfin.com/DC/Washington/838-Varnum-St-NW-20011/home/10041888,838 Varnum St NW,'200110000,38.942677&-77.02473,"Washington, DC",
http://www.redfin.com/DC/Washington/4315-Argyle-Ter-NW-20011/home/10012266,4315 Argyle Ter NW,'200110000,38.9436472&-77.0422071,"Washington, DC",Crestwood
http://www.redfin.com/DC/Washington/1500-Decatur-St-NW-20011/home/10017172,1500 Decatur St NW,'200110000,38.9480942&-77.034792,"Washington, DC",
http://www.redfin.com/DC/Washington/4417-3rd-St-NW-20011/home/10065403,4417 3rd St NW,'200110000,38.944847&-77.0152766,"Washington, DC",
http://www.redfin.com/DC/Washington/4713-10th-St-NE-20017/home/10088284,4713 10th St NE,'200170000,38.9467294&-76.9923908,"Washington, DC",Brookland
http://www.redfin.com/DC/Washington/726-Shepherd-St-NW-20011/home/10050811,726 Shepherd St NW,'200110000,38.9395943&-77.0229282,"Washington, DC",Petworth
http://www.redfin.com/DC/Washington/2803-28th-St-NW-20008/home/9987410,2803 28th St NW,'200080000,38.9268679&-77.0561975,"Washington, DC",Woodley
http://www.redfin.com/DC/Washington/595-Columbia-Rd-NW-20001/home/10044779,595 Columbia Rd NW,'200010000,38.9285408&-77.0207798,"Washington, DC",Columbia Heights
http://www.redfin.com/DC/Washington/3572-13th-St-NW-20010/home/10027518,3572 13th St NW,'200100000,38.9342111&-77.0299596,"Washington, DC",
http://www.redfin.com/DC/Washington/502-Oneida-Pl-NW-20011/home/10056065,502 Oneida Pl NW,'200110000,38.9618076&-77.0201964,"Washington, DC",
http://www.redfin.com/DC/Washington/5331-16th-St-NW-20011/home/10017646,5331 16th St NW,'200110000,38.9548208&-77.036022,"Washington, DC",16th Street Heights
http://www.redfin.com/DC/Washington/3125-Chain-Bridge-Rd-NW-20016/home/9942685,3125 Chain Bridge Rd NW,'200160000,38.9320151&-77.09353,"Washington, DC",Kent
http://www.redfin.com/DC/Washington/607-Oglethorpe-St-NW-20011/home/10056070,607 Oglethorpe St NW,'200110000,38.9614864&-77.0215699,"Washington, DC",Brightwood
http://www.redfin.com/DC/Washington/207-Underwood-St-NW-20012/home/10067225,207 Underwood St NW,'200120000,38.9688187&-77.0145392,"Washington, DC",
http://www.redfin.com/DC/Washington/1822-Kenyon-St-NW-20010/home/10008078,1822 Kenyon St NW,'200100000,38.929435&-77.042277,"Washington, DC",Mount Pleasant
http://www.redfin.com/DC/Washington/5422-8th-St-NW-20011/unit-B/home/10039581,5422 8th St NW Unit B,'200110000,38.9559209&-77.024325,"Washington, DC",
http://www.redfin.com/DC/Washington/4616-4th-St-NW-20011/home/10060406,4616 4th St NW,'200110000,38.946921&-77.017675,"Washington, DC",Petworth
http://www.redfin.com/DC/Washington/1404-42nd-Pl-SE-20020/home/10138176,1404 42nd Pl SE,'200200000,38.8688515&-76.9430068,"Washington, DC",Fort Dupont Park
http://www.redfin.com/DC/Washington/1310-Q-St-NW-20009/unit-2/home/113863750,1310 Q St NW #2,'200090000,38.9109439&-77.0302482,"Washington, DC",Logan Circle
http://www.redfin.com/DC/Washington/1731-S-St-SE-20020/home/10149713,1731 S St SE,'200200000,38.867936&-76.979506,"Washington, DC",Randle Heights
http://www.redfin.com/DC/Washington/1122-Abbey-Pl-NE-20002/home/9892306,1122 Abbey Pl NE,'200020000,38.9044173&-77.0014962,"Washington, DC",Old City #1
http://www.redfin.com/DC/Washington/718-Hilltop-Ter-SE-20019/home/10139690,718 Hilltop Ter SE,'200190000,38.8800551&-76.9418741,"Washington, DC",Fort Dupont Park
http://www.redfin.com/DC/Washington/5341-Jay-St-NE-20019/home/21648398,5341 Jay St NE,'200190000,38.9011835&-76.9228977,"Washington, DC",Deanwood
http://www.redfin.com/DC/Washington/3321-Dubois-Pl-SE-20019/home/10142095,3321 Dubois Pl SE,'200190000,38.885002&-76.9589,"Washington, DC",Fort Dupont Park
http://www.redfin.com/DC/Washington/1530-1st-St-NW-20001/home/9887241,1530 1st St NW,'200010000,38.9105648&-77.0124219,"Washington, DC",Truxton Circle-bloomingdale
http://www.redfin.com/DC/Washington/1325-Trinidad-Ave-NE-20002/home/10096125,1325 Trinidad Ave NE,'200020000,38.90392&-76.985438,"Washington, DC",Trinidad
http://www.redfin.com/DC/Washington/1342-F-St-NE-20002/home/9912552,1342 F St NE,'200020000,38.8975252&-76.9869397,"Washington, DC",
http://www.redfin.com/DC/Washington/5110-H-St-SE-20019/home/10135224,5110 H St SE,'200190000,38.8787057&-76.9295214,"Washington, DC",Marshall Heights
http://www.redfin.com/DC/Washington/1811-3rd-St-NE-20002/unit-2/home/44643416,1811 3rd St NE #2,'200020000,38.914548&-77.001672,"Washington, DC",Eckington
http://www.redfin.com/DC/Washington/1335-Corcoran-St-NW-20009/home/9872008,1335 Corcoran St NW,'200090000,38.912059&-77.031042,"Washington, DC",Logan Circle
http://www.redfin.com/MD/Capitol-Heights/1208-Benning-Rd-20743/home/35654100,1208 Benning Rd,'207430000,38.8756445&-76.930379,"Capitol Heights, MD",Gr Capitol Heights
http://www.redfin.com/DC/Washington/4414-Douglas-St-NE-20019/home/10121835,4414 Douglas St NE,'200190000,38.911186&-76.939652,"Washington, DC",Lily Ponds
http://www.redfin.com/DC/Washington/1728-Independence-Ave-SE-20003/home/9921363,1728 Independence Ave SE,'200030000,38.887778&-76.9797104,"Washington, DC",Old City #1
http://www.redfin.com/DC/Washington/1726-Minnesota-Ave-SE-20020/home/10172944,1726 Minnesota Ave SE,'200200000,38.869295&-76.979708,"Washington, DC",Anacostia
http://www.redfin.com/DC/Washington/2425-18th-Pl-SE-20020/home/10160129,2425 18th Pl SE,'200200000,38.856434&-76.9782292,"Washington, DC",Randle Heights
http://www.redfin.com/DC/Washington/19-Q-St-NW-20001/home/9888025,19 Q St NW,'200010000,38.911307&-77.011066,"Washington, DC",
http://www.redfin.com/DC/Washington/700-6th-St-NE-20002/home/9896640,700 6th St NE,'200020000,38.8991278&-76.9986182,"Washington, DC",
http://www.redfin.com/DC/Washington/1401-Ridge-Pl-SE-20020/home/10149106,1401 Ridge Pl SE,'200200000,38.8686751&-76.984937,"Washington, DC",Anacostia
http://www.redfin.com/DC/Washington/2109-M-St-NE-20002/home/10333344,2109 M St NE,'200020000,38.90539&-76.973698,"Washington, DC",Trinidad
http://www.redfin.com/DC/Washington/1846-Capitol-Ave-NE-20002/home/10094326,1846 Capitol Ave NE,'200020000,38.9116868&-76.9853542,"Washington, DC",Brentwood
http://www.redfin.com/DC/Washington/52-New-York-Ave-NW-20001/unit-1/home/28496524,52 New York Ave NW #1,'200010000,38.90637&-77.010878,"Washington, DC",Old City #2
http://www.redfin.com/DC/Washington/553-45th-St-NE-20019/home/10122765,553 45th St NE,'200190000,38.8970188&-76.9375208,"Washington, DC",Deanwood
http://www.redfin.com/DC/Washington/4905-Rodman-St-NW-20016/home/9945541,4905 Rodman St NW,'200160000,38.9395633&-77.0974395,"Washington, DC",Spring Valley
http://www.redfin.com/DC/Washington/1617-44th-St-NW-20007/home/9937532,1617 44th St NW,'200070000,38.911273&-77.0809869,"Washington, DC",Foxhall
http://www.redfin.com/DC/Washington/4420-Windom-Pl-NW-20016/home/9949777,4420 Windom Pl NW,'200160000,38.9453456&-77.0871667,"Washington, DC",American University Park
http://www.redfin.com/DC/Washington/3924-Macomb-St-NW-20016/home/9963605,3924 Macomb St NW,'200160000,38.9332316&-77.0782329,"Washington, DC",Cleveland Park
http://www.redfin.com/DC/Washington/5234-Sherier-Pl-NW-20016/home/9942042,5234 Sherier Pl NW,'200160000,38.9266911&-77.1051761,"Washington, DC",
http://www.redfin.com/DC/Washington/5514-2nd-St-NW-20011/home/10066364,5514 2nd St NW,'200110000,38.957123&-77.0138847,"Washington, DC",Brightwood
http://www.redfin.com/DC/Washington/3920-Illinois-Ave-NW-20011/home/10059574,3920 Illinois Ave NW,'200110000,38.93939&-77.01736,"Washington, DC",Petworth
http://www.redfin.com/DC/Washington/2703-11th-St-NW-20001/unit-3/home/110031300,2703 11th St NW #3,'200010000,38.924948&-77.0267329,"Washington, DC",Columbia Heights
http://www.redfin.com/DC/Washington/1219-Delafield-Pl-NW-20011/home/10035320,1219 Delafield Pl NW,'200110000,38.949215&-77.028895,"Washington, DC",16th Street Heights
http://www.redfin.com/MD/Takoma-Park/7006-Westmoreland-Ave-20912/home/10974345,7006 Westmoreland Ave,'209120000,38.9741528&-77.0111364,"Takoma Park, MD",
http://www.redfin.com/DC/Washington/606-Tuckerman-St-NW-20011/home/10055168,606 Tuckerman St NW,'200110000,38.9671127&-77.0215557,"Washington, DC",Brightwood
http://www.redfin.com/DC/Washington/836-Varnum-St-NW-20011/home/10041890,836 Varnum St NW,'200110000,38.942679&-77.024635,"Washington, DC",
http://www.redfin.com/DC/Washington/1416-Quincy-St-NW-20011/home/10015502,1416 Quincy St NW,'200110000,38.937733&-77.0339575,"Washington, DC",Columbia Heights
http://www.redfin.com/DC/Washington/5508-N-Capitol-St-NW-20011/home/103932104,5508 North Capitol St NW,'200110000,38.9570546&-77.0090827,"Washington, DC",Brightwood
http://www.redfin.com/DC/Washington/408-Rittenhouse-St-NW-20011/home/10062177,408 Rittenhouse St NW,'200110000,38.964628&-77.018731,"Washington, DC",Manor Park
http://www.redfin.com/DC/Washington/5710-7th-St-NW-20011/home/10052427,5710 7th St NW,'200110000,38.958905&-77.022715,"Washington, DC",Petworth
http://www.redfin.com/DC/Washington/1610-Varnum-St-NW-20011/home/10012071,1610 Varnum St NW,'200110000,38.9427227&-77.0379825,"Washington, DC",Crestwood
http://www.redfin.com/DC/Washington/717-Oneida-Pl-NW-20011/home/10179782,717 Oneida Pl NW,'200110000,38.962205&-77.023304,"Washington, DC",Brightwood
http://www.redfin.com/DC/Washington/5604-N-Capitol-St-NW-20011/home/10068946,5604 Capitol St NW,'200110000,38.9579804&-77.0093388,"Washington, DC",Manor Park
http://www.redfin.com/DC/Washington/6319-8th-St-NW-20011/home/10053076,6319 8th St NW,'200110000,38.9669961&-77.0240187,"Washington, DC",Brightwood
http://www.redfin.com/DC/Washington/1206-Fairmont-St-NW-20009/home/10030517,1206 Fairmont St NW,'200090000,38.924472&-77.0282299,"Washington, DC",
http://www.redfin.com/DC/Washington/312-Taylor-St-NW-20011/home/10064840,312 Taylor St NW,'200110000,38.9408807&-77.0159292,"Washington, DC",Petworth
http://www.redfin.com/DC/Washington/1806-9th-St-NW-20001/unit-1/home/130655849,1806 9th St NW #1,'200010000,38.9144044&-77.0242788,"Washington, DC",Shaw
http://www.redfin.com/DC/Washington/1243-Rock-Creek-Ford-Rd-NW-20011/home/10036118,1243 Rock Creek Ford Rd NW,'200110000,38.962218&-77.0294119,"Washington, DC",Brightwood
http://www.redfin.com/DC/Washington/Undisclosed-address-20018/home/10104325,,'200180000,38.929257&-76.973366,"Washington, DC",Woodridge
http://www.redfin.com/DC/Washington/2207-Douglas-St-NE-20018/home/10104463,2207 Douglas St NE,'200180000,38.923243&-76.973829,"Washington, DC",Woodridge
http://www.redfin.com/DC/Washington/600-Allison-St-NE-20017/home/10085594,600 Allison St NE,'200170000,38.9456668&-76.9981766,"Washington, DC",Brookland
http://www.redfin.com/DC/Washington/5501-5th-St-NE-20011/home/10082289,5501 5th St NE,'200110000,38.9565926&-76.9990848,"Washington, DC",Riggs Park
http://www.redfin.com/DC/Washington/1240-Lawrence-St-NE-20017/home/10090474,1240 Lawrence St NE,'200170000,38.9318229&-76.9893558,"Washington, DC",Brookland
http://www.redfin.com/DC/Washington/1813-Randolph-St-NE-20018/home/10101649,1813 Randolph St NE,'200180000,38.9381218&-76.9792803,"Washington, DC",Michigan Park
http://www.redfin.com/VA/Alexandria/4-Alexander-St-22314/home/11873077,4 Alexander St,'223140000,38.7959928&-77.0397622,"Alexandria, VA",Fords Landing
http://www.redfin.com/DC/Washington/1803-Valley-Ter-SE-20032/home/10162616,1803 Valley Ter SE,'200320000,38.840351&-76.977223,"Washington, DC",Randle Heights
http://www.redfin.com/DC/Washington/162-Joliet-St-20032/home/10172126,162 Joliet St SW,'200320000,38.820382&-77.0067164,"Washington, DC",Congress Heights
http://www.redfin.com/DC/Washington/3303-7th-St-SE-20032/home/10330698,3303 7th St SE,'200320000,38.8418395&-76.9961524,"Washington, DC",Congress Heights
http://www.redfin.com/DC/Washington/1204-Barnaby-Ter-SE-20032/home/10163076,1204 Barnaby Ter SE,'200320000,38.834697&-76.987407,"Washington, DC",Congress Heights
http://www.redfin.com/DC/Washington/4929-Sheriff-Rd-NE-20019/home/10126592,4929 Sheriff Rd NE,'200190000,38.903061&-76.930614,"Washington, DC",
http://www.redfin.com/DC/Washington/3422-Dent-Pl-NW-20007/home/9930428,3422 Dent Pl NW,'200070000,38.9115379&-77.0686623,"Washington, DC",Georgetown
http://www.redfin.com/DC/Washington/3200-Ellicott-St-NW-20008/home/9981366,3200 Ellicott St NW,'200080000,38.9531371&-77.0654718,"Washington, DC",Forest Hills
http://www.redfin.com/DC/Washington/3606-Quesada-St-NW-20015/home/9970477,3606 Quesada St NW,'200150000,38.9683885&-77.0735275,"Washington, DC",Chevy Chase
http://www.redfin.com/DC/Washington/3629-Winfield-Ln-NW-20007/home/9932133,3629 Winfield Ln NW,'200070000,38.9122073&-77.0712399,"Washington, DC",Georgetown
http://www.redfin.com/DC/Washington/2908-Legation-St-NW-20015/home/9993291,2908 Legation St NW,'200150000,38.9645149&-77.0591283,"Washington, DC",Chevy Chase
http://www.redfin.com/DC/Washington/4214-Lenore-Ln-NW-20008/home/9991552,4214 Lenore Ln NW,'200080000,38.9450774&-77.0550171,"Washington, DC",Forest Hills
http://www.redfin.com/DC/Washington/3011-Albemarle-St-NW-20008/home/9982392,3011 Albemarle St NW,'200080000,38.9481561&-77.0626459,"Washington, DC",Forest Hills
http://www.redfin.com/DC/Washington/3239-Military-Rd-NW-20015/home/9980864,3239 Military Rd NW,'200150000,38.9610569&-77.065493,"Washington, DC",Chevy Chase
http://www.redfin.com/DC/Washington/5365-29th-St-NW-20015/home/143505916,5365 29th St NW,'200150000,38.9606149&-77.0585027,"Washington, DC",Chevy Chase
http://www.redfin.com/VA/Alexandria/470-S-Union-St-22314/unit-8/home/11870903,470 Union St S,'223140000,38.7997807&-77.0410816,"Alexandria, VA",Harborside
http://www.redfin.com/DC/Washington/4481-Q-St-NW-20007/home/9939635,4481 Q St NW,'200070000,38.9104725&-77.0847646,"Washington, DC",Palisades
http://www.redfin.com/DC/Washington/1250-Owen-Pl-NE-20002/home/10095772,1250 Owen Pl NE,'200020000,38.9055688&-76.9864553,"Washington, DC",Trinidad
http://www.redfin.com/DC/Washington/3510-Winfield-Ln-NW-20007/home/9931945,3510 Winfield Ln NW,'200070000,38.9117147&-77.0698485,"Washington, DC",Georgetown
http://www.redfin.com/DC/Washington/5030-Garfield-St-NW-20016/home/9942305,5030 Garfield St NW,'200160000,38.9281753&-77.1008881,"Washington, DC",Kent
http://www.redfin.com/VA/Arlington/1111-19th-St-N-22209/unit-3003/home/16898049,1111 19th St N #3003,'222090000,38.897304&-77.069227,"Arlington, VA",The Waterview
http://www.redfin.com/DC/Washington/5346-43rd-St-NW-20015/home/9957243,5346 43rd St NW,'200150000,38.960439&-77.083909,"Washington, DC",Chevy Chase
http://www.redfin.com/DC/Washington/5008-B-St-SE-20019/home/10134758,5008 B St SE,'200190000,38.8867978&-76.9298686,"Washington, DC",Marshall Heights
http://www.redfin.com/DC/Washington/1657-C-St-NE-20002/home/9919736,1657 C St NE,'200020000,38.892997&-76.981092,"Washington, DC",Old City #1
http://www.redfin.com/DC/Washington/2228-R-St-SE-20020/home/10148324,2228 R St SE,'200200000,38.8696438&-76.9736043,"Washington, DC",Fairlawn
http://www.redfin.com/DC/Washington/113-34th-St-SE-20019/home/10141628,113 34th St SE,'200190000,38.8883716&-76.9577526,"Washington, DC",Fort Dupont Park
http://www.redfin.com/DC/Washington/2301-Irving-St-SE-20020/home/10160582,2301 Irving St SE,'200200000,38.852809&-76.97291,"Washington, DC",Randle Heights
http://www.redfin.com/DC/Washington/1711-Fort-Davis-St-SE-20020/home/10144534,1711 Fort Davis St SE,'200200000,38.866289&-76.949318,"Washington, DC",Fort Dupont Park
http://www.redfin.com/DC/Washington/1423-22nd-St-SE-20020/home/10146693,1423 22nd St SE,'200200000,38.873111&-76.975375,"Washington, DC",Anacostia
http://www.redfin.com/DC/Washington/4305-Massachusetts-Ave-SE-20019/home/10137738,4305 Massachusetts Ave SE,'200190000,38.8691867&-76.940376,"Washington, DC",Fort Dupont Park
http://www.redfin.com/DC/Washington/4448-Alabama-Ave-SE-20019/home/10139101,4448 Alabama Ave SE,'200190000,38.8758186&-76.9371394,"Washington, DC",Fort Dupont Park
http://www.redfin.com/DC/Washington/135-Danbury-St-SW-20032/home/21647364,135 Danbury St SW,'200320000,38.828032&-77.011051,"Washington, DC",Congress Heights
http://www.redfin.com/DC/Washington/162-36th-St-NE-20019/home/10118120,162 36th St NE,'200190000,38.892017&-76.9529206,"Washington, DC",Deanwood
http://www.redfin.com/DC/Washington/4608-Easy-Pl-SE-20019/home/10137017,4608 Easy Pl SE,'200190000,38.8758042&-76.9333947,"Washington, DC",Fort Dupont Park
http://www.redfin.com/DC/Washington/4601-Grant-St-NE-20019/home/113716338,4601 Grant St NE,'200190000,38.898094&-76.936455,"Washington, DC",Deanwood
http://www.redfin.com/DC/Washington/1017-49th-St-NE-20019/home/10126062,1017 49th St NE,'200190000,38.903642&-76.9313279,"Washington, DC",Deanwood
http://www.redfin.com/DC/Washington/2929-12th-St-NE-20017/home/10090753,2929 12th St NE,'200170000,38.9273933&-76.9903199,"Washington, DC",Brookland
http://www.redfin.com/DC/Washington/3005-17th-St-NE-20018/home/10099401,3005 17th St NE,'200180000,38.9286294&-76.9805989,"Washington, DC",Brookland
http://www.redfin.com/DC/Washington/751-Gallatin-St-NE-20017/home/10083910,751 Gallatin St NE,'200170000,38.9521139&-76.9945872,"Washington, DC",Riggs Park
http://www.redfin.com/DC/Washington/634-Lexington-Pl-NE-20002/home/9899080,634 Lexington Pl NE,'200020000,38.895653&-76.997172,"Washington, DC",Old City #1
http://www.redfin.com/DC/Washington/4713-12th-St-NE-20017/home/10089816,4713 12th St NE,'200170000,38.9467307&-76.9899596,"Washington, DC",Brookland
http://www.redfin.com/DC/Washington/3438-Dix-St-NE-20019/home/10117112,3438 Dix St NE,'200190000,38.8949726&-76.9562414,"Washington, DC",Lily Ponds
http://www.redfin.com/DC/Washington/5051-Sargent-Rd-NE-20017/home/10089326,5051 Sargent Rd NE,'200170000,38.951987&-76.989187,"Washington, DC",Riggs Park
http://www.redfin.com/DC/Washington/333-Oglethorpe-St-NE-20011/home/10078592,333 Oglethorpe St NE,'200110000,38.961029&-77.0014575,"Washington, DC",Riggs Park
http://www.redfin.com/DC/Washington/4229-19th-St-NE-20018/home/10101253,4229 19th St NE,'200180000,38.9415708&-76.9780677,"Washington, DC",Michigan Park
http://www.redfin.com/DC/Washington/4402-13th-Pl-NE-20017/home/10092557,4402 13th Pl NE,'200170000,38.9430411&-76.9875,"Washington, DC",Brookland
http://www.redfin.com/DC/Washington/4125-19th-St-NE-20018/home/11743921,4125 19th St NE,'200180000,38.9405505&-76.9780056,"Washington, DC",Michigan Park
http://www.redfin.com/MD/Takoma-Park/6617-Eastern-Ave-20912/home/10972949,6617 Eastern Ave,'209120000,38.9703945&-77.0078972,"Takoma Park, MD",Takoma Park
http://www.redfin.com/DC/Washington/612-Keefer-Pl-NW-20010/home/10043670,612 Keefer Pl NW,'200100000,38.9305606&-77.0216811,"Washington, DC",Columbia Heights
http://www.redfin.com/DC/Washington/1319-Spring-Rd-NW-20010/home/10026133,1319 Spring Rd NW,'200100000,38.936901&-77.030593,"Washington, DC",Columbia Heights
http://www.redfin.com/DC/Washington/7529-9th-St-NW-20012/home/10037190,7529 9th St NW,'200120000,38.9817585&-77.0251857,"Washington, DC",Brightwood
http://www.redfin.com/DC/Washington/231-8th-St-NE-20002/home/9902921,231 8th St NE,'200020000,38.893005&-76.994581,"Washington, DC",Capitol Hill
http://www.redfin.com/DC/Washington/3727-Winfield-Ln-NW-20007/home/9932091,3727 Winfield Ln NW,'200070000,38.9122307&-77.0728367,"Washington, DC",Georgetown
http://www.redfin.com/DC/Washington/809-Quackenbos-St-NW-20011/home/10038803,809 Quackenbos St NW,'200110000,38.963994&-77.024756,"Washington, DC",Brightwood
http://www.redfin.com/DC/Washington/3009-Daniel-Ln-NW-20015/home/9996956,3009 Daniel Ln NW,'200150000,38.981649&-77.0529599,"Washington, DC",Hawthorne
http://www.redfin.com/DC/Washington/2447-P-St-NW-20007/home/9928557,2447 P St NW,'200070000,38.9097593&-77.0531338,"Washington, DC",Georgetown
http://www.redfin.com/DC/Washington/5225-Partridge-Ln-NW-20016/home/9944167,5225 Partridge Ln NW,'200160000,38.934607&-77.1071793,"Washington, DC",Kent
http://www.redfin.com/DC/Washington/742-Harvard-St-NW-20001/home/10032054,742 Harvard St NW,'200010000,38.926831&-77.024368,"Washington, DC",Columbia Heights
http://www.redfin.com/DC/Washington/5608-Kansas-Ave-NW-20011/home/10066632,5608 Kansas Ave NW,'200110000,38.958032&-77.014336,"Washington, DC",Chillum
http://www.redfin.com/DC/Washington/5058-Sedgwick-St-NW-20016/home/9945397,5058 Sedgwick St NW,'200160000,38.9380512&-77.1007095,"Washington, DC",Spring Valley
http://www.redfin.com/DC/Washington/620-Jefferson-St-NW-20011/home/10056919,620 Jefferson St NW,'200110000,38.955034&-77.021465,"Washington, DC",Petworth
http://www.redfin.com/DC/Washington/3201-Garfield-St-NW-20008/home/9988063,3201 Garfield St NW,'200080000,38.9277563&-77.0639441,"Washington, DC",Massachusetts Avenue Hei
http://www.redfin.com/DC/Washington/1123-Euclid-St-NW-20009/home/10030652,1123 Euclid St NW,'200090000,38.9240201&-77.0277533,"Washington, DC",Columbia Heights
http://www.redfin.com/DC/Washington/1441-Duncan-St-NE-20002/home/9916183,1441 Duncan St NE,'200020000,38.8952283&-76.9842052,"Washington, DC",Old City #1
http://www.redfin.com/DC/Washington/611-Delafield-Pl-NW-20011/home/10057834,611 Delafield Pl NW,'200110000,38.94936&-77.021151,"Washington, DC",Petworth
http://www.redfin.com/DC/Washington/923-11th-St-NE-20002/home/9907751,923 11th St NE,'200020000,38.9020662&-76.9912789,"Washington, DC",Old City #1
http://www.redfin.com/DC/Washington/88-P-St-NW-20001/home/21647138,88 P St NW,'200010000,38.9095028&-77.011826,"Washington, DC",Truxton Circle
http://www.redfin.com/DC/Washington/1219-Trinidad-Ave-NE-20002/home/10180290,1219 Trinidad Ave NE,'200020000,38.9028584&-76.9861991,"Washington, DC",Trinidad
http://www.redfin.com/DC/Washington/509-Oakwood-St-SE-20032/home/10166881,509 Oakwood St SE,'200320000,38.8455387&-77.0007756,"Washington, DC",Congress Heights
http://www.redfin.com/DC/Washington/941-M-St-NW-20001/unit-A/home/56691371,941 M St NW Unit A,'200010000,38.9058973&-77.0257166,"Washington, DC",Old City #2
http://www.redfin.com/DC/Washington/3114-Park-Pl-NW-20010/home/10044488,3114 Park Pl NW,'200100000,38.930097&-77.018421,"Washington, DC",Columbia Heights
http://www.redfin.com/DC/Washington/3327-B-St-SE-20019/home/10141703,3327 B St SE,'200190000,38.8873767&-76.9578459,"Washington, DC",Fort Dupont Park
http://www.redfin.com/DC/Washington/1410-Buchanan-St-NW-20011/home/10016785,1410 Buchanan St NW,'200110000,38.9460036&-77.0335284,"Washington, DC",16th Street Heights
http://www.redfin.com/DC/Washington/2302-17th-St-NW-20009/home/10005010,2302 17th St NW,'200090000,38.9203326&-77.0390308,"Washington, DC",Adams Morgan
http://www.redfin.com/DC/Washington/1902-Tremont-St-SE-20020/home/10185040,1902 Tremont St SE,'200200000,38.8459534&-76.9762126,"Washington, DC",Randle Heights
http://www.redfin.com/DC/Washington/1242-Anacostia-Rd-SE-20019/home/10143643,1242 Anacostia Rd SE,'200190000,38.8748955&-76.9626979,"Washington, DC",Hill Crest
http://www.redfin.com/DC/Washington/1252-6th-St-SW-20024/unit-NA/home/141409198,1252 6th St SW Unit NA,'200240000,38.8763156&-77.019881,"Washington, DC",Tiber Island Coopertive Homes
http://www.redfin.com/DC/Washington/3009-S-Dakota-Ave-NE-20018/home/10106106,3009 South Dakota Ave NE,'200180000,38.9293431&-76.9691375,"Washington, DC",Woodridge
http://www.redfin.com/DC/Washington/3807-Massachusetts-Ave-SE-20019/home/10145100,3807 Massachusetts Ave SE,'200190000,38.8728772&-76.9496202,"Washington, DC",Hill Crest
http://www.redfin.com/DC/Washington/5030-Ivory-Walters-Ln-SE-20019/home/39955924,5030 Ivory Walters Ln SE,'200190000,38.8813228&-76.9299314,"Washington, DC",Marshall Heights
http://www.redfin.com/DC/Washington/3031-30th-St-SE-20020/unit-5/home/12530053,3031 30th St SE #5,'200200000,38.8519524&-76.9654358,"Washington, DC",Randle Heights
http://www.redfin.com/DC/Washington/5300-Central-Ave-SE-20019/home/10132716,5300 Central Ave SE,'200190000,38.8875629&-76.9252298,"Washington, DC",Deanwood
http://www.redfin.com/DC/Washington/2505-Rhode-Island-Ave-NE-20018/home/10180383,2505 Rhode Island Ave NE,'200180000,38.9315568&-76.9703896,"Washington, DC",
http://www.redfin.com/DC/Washington/3124-Apple-Rd-NE-20018/unit-16/home/10107647,3124 Apple Rd NE #16,'200180000,38.9248316&-76.9626611,"Washington, DC",Fort Lincoln
http://www.redfin.com/DC/Washington/1156-4th-St-NE-20002/home/9892091,1156 4th St NE,'200020000,38.9052762&-77.0008229,"Washington, DC",Old City #1
http://www.redfin.com/DC/Washington/1916-Shepherd-St-NE-20018/home/10101461,1916 Shepherd St NE,'200180000,38.9398538&-76.9773491,"Washington, DC",Michigan Park
http://www.redfin.com/DC/Washington/3033-Chancellor-s-Way-NE-20017/home/40501987,3033 Chancellor's Way NE,'200170000,38.928216&-76.997617,"Washington, DC",Brookland
http://www.redfin.com/DC/Washington/909-Delafield-Pl-NW-20011/home/10040936,909 Delafield Pl NW,'200110000,38.949229&-77.025858,"Washington, DC",Petworth
http://www.redfin.com/DC/Washington/7-Grant-Cir-NW-20011/unit-2/home/113861888,7 Grant Cir NW #2,'200110000,38.942841&-77.0183612,"Washington, DC",Petworth
http://www.redfin.com/DC/Washington/1806-9th-St-NW-20001/unit-2/home/130647455,1806 9th St NW #2,'200010000,38.914396&-77.024298,"Washington, DC",Shaw
http://www.redfin.com/DC/Washington/1220-Bank-Aly-NW-20007/home/9925092,1220 Bank Aly NW,'200070000,38.9057481&-77.0672166,"Washington, DC",
http://www.redfin.com/DC/Washington/1505-Saratoga-Ave-NE-20018/home/10099023,1505 Saratoga Ave NE,'200180000,38.924333&-76.9833406,"Washington, DC",
http://www.redfin.com/DC/Washington/1223-W-St-NW-20009/home/9873403,1223 W St NW,'200090000,38.919391&-77.029058,"Washington, DC",
http://www.redfin.com/DC/Washington/2229-California-St-NW-20008/home/9998122,2229 California St NW,'200080000,38.91603&-77.05,"Washington, DC",Kalorama
http://www.redfin.com/DC/Washington/3011-Dumbarton-St-NW-20007/home/9927230,3011 Dumbarton St NW,'200070000,38.9078514&-77.0597348,"Washington, DC",Georgetown
http://www.redfin.com/DC/Washington/613-Kensington-Pl-NE-20011/home/10081320,613 Kensington Pl NE,'200110000,38.9578401&-76.9971545,"Washington, DC",Riggs Park
http://www.redfin.com/DC/Washington/1517-26th-St-NW-20007/home/9928525,1517 26th St NW,'200070000,38.9098631&-77.0545644,"Washington, DC",Georgetown
http://www.redfin.com/DC/Washington/544-14th-St-SE-20003/home/9917963,544 14th St SE,'200030000,38.8817643&-76.9852547,"Washington, DC",Old City #1
http://www.redfin.com/DC/Washington/1201-Kenyon-St-NW-20010/unit-4/home/123225133,1201 Kenyon St NW #4,'200100000,38.929951&-77.028232,"Washington, DC",Columbia Heights
http://www.redfin.com/DC/Washington/1929-H-St-NE-20002/home/10111879,1929 H St NE,'200020000,38.8999855&-76.9752606,"Washington, DC",Trinidad
http://www.redfin.com/DC/Washington/101-Duddington-Pl-SE-20003/home/9890465,101 Duddington Pl SE,'200030000,38.8825003&-77.0055938,"Washington, DC",Capitol Hill
http://www.redfin.com/DC/Washington/1128-Columbia-Rd-NW-20009/unit-2/home/96526603,1128 Columbia Rd NW #2,'200090000,38.92745&-77.0282639,"Washington, DC",Columbia Heights
http://www.redfin.com/DC/Washington/1540-Levis-St-NE-20002/unit-B/home/114111537,1540 Levis St NE Unit B,'200020000,38.90451&-76.981748,"Washington, DC",Trinidad
http://www.redfin.com/DC/Washington/47-Randolph-Pl-NW-20001/home/10047510,47 Randolph Pl NW,'200010000,38.913535&-77.010698,"Washington, DC",Eckington
http://www.redfin.com/DC/Washington/3812-13th-St-NW-20011/home/10026014,3812 13th St NW,'200110000,38.9381868&-77.0299859,"Washington, DC",Columbia Heights
http://www.redfin.com/DC/Washington/75-New-York-Ave-NW-20001/home/9888841,75 New York Ave NW,'200010000,38.906781&-77.011653,"Washington, DC",
http://www.redfin.com/DC/Washington/1224-Holbrook-St-NE-20002/home/10096819,1224 Holbrook St NE,'200020000,38.9022423&-76.9843111,"Washington, DC",
http://www.redfin.com/DC/Washington/1245-Emerson-St-NE-20017/home/10093042,1245 Emerson St NE,'200170000,38.9500708&-76.9878696,"Washington, DC",Riggs Park
http://www.redfin.com/DC/Washington/4123-8th-St-NW-20011/home/10051093,4123 8th St NW,'200110000,38.9416245&-77.0230728,"Washington, DC",
http://www.redfin.com/DC/Washington/739-Delaware-Ave-SW-20024/unit-189/home/9885594,739 Delaware Ave SW #189,'200240000,38.8803111&-77.0131172,"Washington, DC",
http://www.redfin.com/DC/Washington/648-6th-St-NE-20002/home/9896776,648 6th St NE,'200020000,38.8985598&-76.9986953,"Washington, DC",Captiol Hill
http://www.redfin.com/DC/Washington/3016-Sherman-Ave-NW-20001/home/10029428,3016 Sherman Ave NW,'200010000,38.9282997&-77.026426,"Washington, DC",
http://www.redfin.com/DC/Washington/113-Hamilton-St-NW-20011/home/10069496,113 Hamilton St NW,'200110000,38.953704&-77.012242,"Washington, DC",Petworth
http://www.redfin.com/DC/Washington/1360-E-Capitol-St-NE-20003/home/9914073,1360 East Capitol St NE,'200030000,38.890206&-76.986408,"Washington, DC",Old City #1
http://www.redfin.com/DC/Washington/3617-13th-St-NW-20010/home/10026748,3617 13th St NW,'200100000,38.935113&-77.029391,"Washington, DC",Columbia Heights
http://www.redfin.com/DC/Washington/742-Princeton-Pl-NW-20010/home/10042423,742 Princeton Pl NW,'200100000,38.935205&-77.022436,"Washington, DC",
http://www.redfin.com/DC/Washington/1537-8th-St-NW-20001/home/9878932,1537 8th St NW,'200010000,38.910765&-77.022611,"Washington, DC",
http://www.redfin.com/DC/Washington/1114-Galloway-St-NE-20011/home/10088999,1114 Galloway St NE,'200110000,38.9537944&-76.9907916,"Washington, DC",Riggs Park
http://www.redfin.com/DC/Washington/4222-3rd-St-NW-20011/home/10064609,4222 3rd St NW,'200110000,38.9428349&-77.0157191,"Washington, DC",Petworth
http://www.redfin.com/DC/Washington/5423-8th-St-NW-20011/home/10052198,5423 8th St NW,'200110000,38.9560463&-77.0237987,"Washington, DC",Petworth
http://www.redfin.com/DC/Washington/4505-Arkansas-Ave-NW-20011/home/10025295,4505 Arkansas Ave NW,'200110000,38.945319&-77.031142,"Washington, DC",16th Street Heights
http://www.redfin.com/DC/Washington/3535-13th-St-NW-20010/home/10027407,3535 13th St NW,'200100000,38.933797&-77.029387,"Washington, DC",
http://www.redfin.com/DC/Washington/1281-Simms-Pl-NE-20002/home/10094501,1281 Simms Pl NE,'200020000,38.9083816&-76.9828703,"Washington, DC",
http://www.redfin.com/DC/Washington/5017-1st-St-NW-20011/home/10069922,5017 1st St NW,'200110000,38.9510748&-77.0119212,"Washington, DC",
http://www.redfin.com/DC/Washington/1310-Q-St-NW-20009/unit-3/home/113899373,1310 Q St NW #3,'200090000,38.9109439&-77.0302482,"Washington, DC",Logan Circle
http://www.redfin.com/DC/Washington/3119-Patterson-Pl-NW-20015/home/9994265,3119 Patterson Pl NW,'200150000,38.9684784&-77.0623493,"Washington, DC",Chevy Chase
http://www.redfin.com/DC/Washington/6931-33rd-St-NW-20015/home/9996650,6931 33rd St NW,'200150000,38.9806252&-77.058426,"Washington, DC",Chevy Chase
http://www.redfin.com/DC/Washington/1510-Van-Buren-St-NW-20012/home/10018764,1510 Van Buren St NW,'200120000,38.969652&-77.035391,"Washington, DC",Brightwood
http://www.redfin.com/DC/Washington/3270-Aberfoyle-Pl-NW-20015/home/9995973,3270 Aberfoyle Pl NW,'200150000,38.977573&-77.0616034,"Washington, DC",Chevy Chase
http://www.redfin.com/DC/Washington/6304-Piney-Branch-Rd-NW-20011/home/10036214,6304 Piney Branch Rd NW,'200110000,38.9665574&-77.0287382,"Washington, DC",
http://www.redfin.com/DC/Washington/6650-Blair-Rd-NW-20012/home/10067228,6650 Blair Rd NW,'200120000,38.9709614&-77.0158075,"Washington, DC",Takoma Park
http://www.redfin.com/DC/Washington/6208-Sligo-Mill-Rd-NE-20011/home/10078937,6208 Sligo Mill Rd NE,'200110000,38.9659361&-77.0046326,"Washington, DC",Takoma Park
http://www.redfin.com/DC/Washington/3620-Norton-Pl-NW-20016/home/9973579,3620 Norton Pl NW,'200160000,38.935342&-77.071962,"Washington, DC",Cleveland Park
http://www.redfin.com/DC/Washington/4401-River-Rd-NW-20016/home/9949290,4401 River Rd NW,'200160000,38.9535838&-77.0867647,"Washington, DC",American University Park
http://www.redfin.com/DC/Washington/3751-W-St-NW-20007/home/9934233,3751 W St NW,'200070000,38.919416&-77.075584,"Washington, DC",Glover Park
http://www.redfin.com/DC/Washington/3703-S-St-NW-20007/home/9935937,3703 S St NW,'200070000,38.9146948&-77.0733237,"Washington, DC",Burleith
http://www.redfin.com/DC/Washington/3831-S-St-NW-20007/home/9936391,3831 S St NW,'200070000,38.9146396&-77.0753416,"Washington, DC",Burleith
http://www.redfin.com/VA/Alexandria/704-Kahn-Pl-22314/home/11873081,704 Kahn Pl,'223140000,38.7963511&-77.0397524,"Alexandria, VA",Fords Landing
http://www.redfin.com/DC/Washington/3219-5th-St-SE-20032/home/10165508,3219 5th St SE,'200320000,38.8421222&-76.9997578,"Washington, DC",Congress Heights
http://www.redfin.com/DC/Washington/2011-16th-St-SE-20020/home/10158061,2011 16th St SE,'200200000,38.8650129&-76.9825032,"Washington, DC",Anacostia
http://www.redfin.com/DC/Washington/436-Mellon-St-SE-20032/home/10166447,436 Mellon St SE,'200320000,38.8479876&-77.0007018,"Washington, DC",
http://www.redfin.com/DC/Washington/1954-Valley-Ter-SE-20032/home/10162503,1954 Valley Ter SE,'200320000,38.8415588&-76.975858,"Washington, DC",
http://www.redfin.com/DC/Washington/2012-4th-St-NE-20002/home/10075043,2012 4th St NE,'200020000,38.9174632&-77.0008607,"Washington, DC",
http://www.redfin.com/DC/Washington/4142-2nd-St-SW-20032/home/10182445,4142 2nd St SW,'200320000,38.8292505&-77.0133582,"Washington, DC",
http://www.redfin.com/DC/Washington/222-Seaton-Pl-NE-20002/home/10075453,222 Seaton Pl NE,'200020000,38.9150267&-77.0027393,"Washington, DC",
http://www.redfin.com/DC/Washington/220-Ascot-Pl-NE-20002/home/10074619,220 Ascot Pl NE,'200020000,38.9209094&-77.0026748,"Washington, DC",Brookland
http://www.redfin.com/DC/Washington/1312-13th-St-NW-20005/home/9872707,1312 13th St NW,'200050000,38.9077263&-77.0298335,"Washington, DC",
http://www.redfin.com/DC/Washington/720-K-St-NE-20002/home/9900972,720 K St NE,'200020000,38.9027701&-76.9953802,"Washington, DC",
http://www.redfin.com/DC/Washington/28-T-St-NE-20002/unit-2/home/10072345,28 T St NE #2,'200020000,38.9157773&-77.0079473,"Washington, DC",
http://www.redfin.com/DC/Washington/2701-6th-St-NE-20017/home/10075971,2701 6th St NE,'200170000,38.9246578&-76.9981919,"Washington, DC",Brookland
http://www.redfin.com/DC/Washington/1310-Vermont-Ave-NW-20005/home/9872499,1310 Vermont Ave NW,'200050000,38.907965&-77.031076,"Washington, DC",Logan Circle
http://www.redfin.com/DC/Washington/1909-Foxview-Cir-NW-20007/home/52386607,1909 Foxview Cir NW,'200070000,38.9156823&-77.0853932,"Washington, DC",1801 Foxhall
http://www.redfin.com/DC/Washington/2709-P-St-NW-20007/home/9929637,2709 P St NW,'200070000,38.9095819&-77.0559015,"Washington, DC",Georgetown
http://www.redfin.com/DC/Washington/1419-3rd-St-NW-20001/home/9887347,1419 3rd St NW,'200010000,38.9091193&-77.0149162,"Washington, DC",Old City #2
http://www.redfin.com/DC/Washington/720-4th-St-NE-20002/home/9892571,720 4th St NE,'200020000,38.8995496&-77.0007953,"Washington, DC",Capitol Hill
http://www.redfin.com/MD/Fairmount-Heights/817-57th-Pl-20743/home/11011173,817 57th Pl,'207430000,38.9009046&-76.9176429,"Fairmount Heights, MD",West Fairmount
