URL,ADDRESS,ZIP_CODE,LAT_LON,CITY_STATE,LOCATION
http://www.redfin.com/VA/Arlington/1927-N-Woodley-St-22207/home/11234829,1927 Woodley St,'222070000,38.8955535&-77.1208915,"Arlington, Virginia",Richard R Bassett
http://www.redfin.com/VA/Arlington/1111-N-Utah-St-22201/home/11244422,1111 Utah St N,'222010000,38.884396&-77.113992,"Arlington, Virginia",Fairlee Court
http://www.redfin.com/VA/Arlington/3174-21st-St-N-22201/home/11247484,3174 21st St N,'222010000,38.8940159&-77.0976141,"Arlington, Virginia",
http://www.redfin.com/VA/Arlington/1803-N-Stafford-St-22207/home/11233747,1803 Stafford St,'222070000,38.892982&-77.111599,"Arlington, Virginia",Arlington
http://www.redfin.com/VA/Arlington/4202-25th-St-N-22207/home/11232436,4202 25th St N,'222070000,38.9047476&-77.1131214,"Arlington, Virginia",Lee Heights
http://www.redfin.com/VA/Arlington/2829-S-Buchanan-St-22206/unit-2400/home/11268486,2829 Buchanan St S Unit A1,'222060000,38.8408584&-77.1008119,"Arlington, Virginia",Fairlington
http://www.redfin.com/VA/Arlington/728-15th-St-S-22202/unit-2/home/11275566,728 15th St S #2,'222020000,38.8599099&-77.0591387,"Arlington, Virginia",Southampton
http://www.redfin.com/VA/Arlington/3174-20th-St-N-22201/home/11247785,3174 20th St N,'222010000,38.8934337&-77.0970161,"Arlington, Virginia",Lyon Village
http://www.redfin.com/VA/Arlington/3362-2nd-St-S-22204/home/11262235,3362 2nd St S,'222040000,38.8687073&-77.0952049,"Arlington, Virginia",
http://www.redfin.com/VA/Arlington/1316-S-Rolfe-St-22204/home/114033619,1316 S Rolfe St,'222040000,38.8628703&-77.0746634,"Arlington, Virginia",Carver Place
http://www.redfin.com/VA/Arlington/3638-Vacation-Ln-22207/home/11233037,3638 Vacation Ln,'222070000,38.899504&-77.10442,"Arlington, Virginia",Maywood/lorcom Grove
http://www.redfin.com/VA/Arlington/6943-N-Four-Mile-Run-Dr-22213/home/11226226,6943 N Four Mile Run Dr,'222130000,38.8887858&-77.1662679,"Arlington, Virginia",
http://www.redfin.com/VA/Arlington/4700-2nd-St-N-22203/home/11243761,4700 2nd St N,'222030000,38.8697208&-77.1144342,"Arlington, Virginia",Arlington Forest
http://www.redfin.com/VA/Arlington/2628-N-Sycamore-St-22207/home/11225365,2628 Sycamore St N,'222070000,38.8959521&-77.1576723,"Arlington, Virginia",North Arlington
http://www.redfin.com/VA/Arlington/614-19th-St-S-22202/home/11275981,614 19th St S,'222020000,38.8561819&-77.05633,"Arlington, Virginia",Addison Heights
http://www.redfin.com/VA/Arlington/900-N-Harrison-St-22205/home/11241947,900 Harrison St,'222050000,38.8787679&-77.1276907,"Arlington, Virginia",Bluemont
http://www.redfin.com/VA/Arlington/4716-20th-Pl-N-22207/home/11234692,4716 20th Pl N,'222070000,38.8950766&-77.1228472,"Arlington, Virginia",Waverly Hills
http://www.redfin.com/VA/Arlington/2445-N-Taylor-St-22207/home/11232411,2445 Taylor St N,'222070000,38.9043497&-77.1155711,"Arlington, Virginia",Lee Heights
http://www.redfin.com/VA/Arlington/4906-36th-St-N-22207/home/11229081,4906 36th St N,'222070000,38.9148206&-77.1367109,"Arlington, Virginia",Country Club Manor
http://www.redfin.com/VA/Arlington/625-N-Emerson-St-22203/home/11242489,625 Emerson St,'222030000,38.8756087&-77.1211082,"Arlington, Virginia",Brandon Village - Bluemont
http://www.redfin.com/VA/Arlington/2830-N-Trinidad-St-22213/home/11224984,2830 Trinidad St N,'222130000,38.896288&-77.161187,"Arlington, Virginia",N/a
http://www.redfin.com/VA/Arlington/1159-N-Ivanhoe-St-22205/home/16898018,1159 Ivanhoe St N,'222050000,38.8834613&-77.1321561,"Arlington, Virginia",Lacey Forest
http://www.redfin.com/VA/Arlington/4400-35th-St-N-22207/home/11229740,4400 35th St N,'222070000,38.9160644&-77.1241937,"Arlington, Virginia",Broyhill Forest / Country Club Hills
http://www.redfin.com/VA/Arlington/2642-Robert-Walker-Pl-22207/home/11232472,2642 Robert Walker Pl,'222070000,38.9064039&-77.111464,"Arlington, Virginia",
http://www.redfin.com/VA/Arlington/1075-N-Montana-St-22205/home/11240623,1075 Montana St N,'222050000,38.8805762&-77.1442829,"Arlington, Virginia",Dominion Hills
http://www.redfin.com/VA/Arlington/3831-36th-Rd-N-22207/home/11230757,3831 36th Rd N,'222070000,38.9201185&-77.1194617,"Arlington, Virginia",Rivercrest
http://www.redfin.com/VA/Arlington/1000-N-Powhatan-St-22205/home/11240393,1000 Powhatan St N,'222050000,38.8784916&-77.1490285,"Arlington, Virginia",Madison Manor
http://www.redfin.com/VA/Arlington/1111-19th-St-N-22209/unit-3003/home/16898049,1111 19th St N #3003,'222090000,38.897304&-77.069227,"Arlington, Virginia",The Waterview
http://www.redfin.com/VA/Arlington/240-N-Greenbrier-St-22203/home/11243428,240 Greenbrier St N,'222030000,38.8705229&-77.1220456,"Arlington, Virginia",Arlington Forest
http://www.redfin.com/VA/Arlington/3521-3rd-St-N-22201/home/11256762,3521 3rd St N,'222010000,38.875732&-77.1000509,"Arlington, Virginia",Ashton Heights
http://www.redfin.com/VA/Arlington/4024-N-Stuart-St-22207/home/9415781,4024 Stuart St N,'222070000,38.926196&-77.131251,"Arlington, Virginia",Golf Club Manor Reynolds
http://www.redfin.com/VA/Arlington/2428-N-Potomac-St-22207/home/11225956,2428 Potomac St,'222070000,38.8938779&-77.1527394,"Arlington, Virginia",Berkshire Oakwood
http://www.redfin.com/VA/Arlington/646-N-Florida-St-22205/home/11242554,646 Florida St N,'222050000,38.8756236&-77.1238951,"Arlington, Virginia",Bluemont
http://www.redfin.com/VA/Arlington/1506-N-Garfield-St-22201/home/11248217,1506 Garfield St,'222010000,38.8890468&-77.0944319,"Arlington, Virginia",Lyon Village
http://www.redfin.com/VA/Arlington/3620-N-Piedmont-St-22207/home/11230655,3620 Piedmont St N,'222070000,38.9187378&-77.1182257,"Arlington, Virginia",Bellevue Forest
http://www.redfin.com/VA/Arlington/4351-26th-St-N-22207/home/11229824,4351 26th St N,'222070000,38.9093751&-77.1180169,"Arlington, Virginia",
http://www.redfin.com/VA/Arlington/2320-N-Vermont-St-22207/home/11232674,2320 Vermont St N,'222070000,38.9017182&-77.118916,"Arlington, Virginia",Lee Heights
http://www.redfin.com/VA/Arlington/2317-N-Edison-St-22207/home/11235994,2317 Edison St N,'222070000,38.8976214&-77.1305146,"Arlington, Virginia",Garden City
http://www.redfin.com/VA/Arlington/4786-Williamsburg-Blvd-22207/home/11229112,4786 Williamsburg Blvd,'222070000,38.9135617&-77.1375019,"Arlington, Virginia",Country Club Manors
http://www.redfin.com/VA/Arlington/4800-21st-St-N-22207/home/11234545,4800 21st St N,'222070000,38.8947136&-77.12391,"Arlington, Virginia",Glebewood Village
http://www.redfin.com/VA/Arlington/2066-N-Oakland-St-22207/home/11279131,2066 Oakland St N,'222070000,38.89578&-77.106558,"Arlington, Virginia",Bromptons At Cherrydale
http://www.redfin.com/VA/Arlington/3011-13th-St-S-22204/home/11273776,3011 13th St S,'222040000,38.8599035&-77.0879477,"Arlington, Virginia",Douglas Park
http://www.redfin.com/VA/Arlington/2221-S-Dinwiddie-St-22206/home/11265800,2221 Dinwiddie St,'222060000,38.8444131&-77.1067469,"Arlington, Virginia",Claremont
http://www.redfin.com/VA/Arlington/744-S-Granada-St-22204/home/11259626,744 Granada St,'222040000,38.858136&-77.119027,"Arlington, Virginia",Antn Mews
http://www.redfin.com/VA/Arlington/2412-N-Greenbrier-Ct-22207/home/11228077,2412 Greenbrier Ct N,'222070000,38.896878&-77.13658,"Arlington, Virginia",Arlington
http://www.redfin.com/VA/Arlington/2509-S-Kenwood-St-22206/home/11272264,2509 Kenwood St,'222060000,38.8467551&-77.0844842,"Arlington, Virginia",Shirlington
http://www.redfin.com/VA/Arlington/1313-S-Quincy-St-22204/home/11263698,1313 Quincy St S,'222040000,38.8566266&-77.0973741,"Arlington, Virginia",Douglas Park
http://www.redfin.com/VA/Arlington/1904-S-Randolph-St-22204/home/11264387,1904 Randolph St,'222040000,38.8505601&-77.0964985,"Arlington, Virginia",Douglas Park
http://www.redfin.com/VA/Arlington/1967-N-Adams-St-22201/home/11246892,1967 Adams St N,'222010000,38.896253&-77.088678,"Arlington, Virginia",Potomac Ridge
http://www.redfin.com/VA/Arlington/2416-S-Culpeper-St-22206/home/11265914,2416 Culpeper St S,'222060000,38.843885&-77.104742,"Arlington, Virginia",Claremont
http://www.redfin.com/VA/Arlington/4901-11th-St-N-22205/home/11235927,4901 11th St N,'222050000,38.883945&-77.122131,"Arlington, Virginia",Waycroft-woodlawn
http://www.redfin.com/VA/Arlington/908-N-Lexington-St-22205/home/11241807,908 Lexington St,'222050000,38.8778975&-77.1340135,"Arlington, Virginia",Bon Air / Bluemont
http://www.redfin.com/VA/Arlington/5924-Washington-Blvd-22205/home/11238432,5924 Washington Blvd,'222050000,38.8860056&-77.1431117,"Arlington, Virginia","Fostoria, Highland Park"
http://www.redfin.com/VA/Arlington/2080-N-Oakland-St-22207/home/11279135,2080 Oakland St N,'222070000,38.896024&-77.1067489,"Arlington, Virginia",Bromptons At Cherrydale
http://www.redfin.com/VA/Arlington/5714-9th-Rd-N-22205/home/11241817,5714 9th Rd N,'222050000,38.8782293&-77.133137,"Arlington, Virginia",Bon Air
http://www.redfin.com/VA/Arlington/5919-1st-St-S-22204/home/11258517,5919 1st St S,'222040000,38.8655332&-77.1337365,"Arlington, Virginia",Carlin Springs
http://www.redfin.com/VA/Arlington/2416-N-Quantico-St-22207/home/11226025,2416 Quantico St,'222070000,38.8936228&-77.1539838,"Arlington, Virginia",Arlington
http://www.redfin.com/VA/McLean/6125-Old-Dominion-Dr-22101/home/9847501,6125 Old Dominion Dr,'221010000,38.914366&-77.147967,"Mclean, Virginia",Woodland Acres
http://www.redfin.com/VA/Arlington/Undisclosed-address-22207/home/11226553,,'222070000,38.9080191&-77.1495742,"Arlington, Virginia",Crescent Hills
http://www.redfin.com/VA/Arlington/6316-26th-St-N-22207/home/11226017,6316 26th St N,'222070000,38.894337&-77.1550199,"Arlington, Virginia",Somerset
http://www.redfin.com/VA/Arlington/4659-34th-St-N-22207/home/11229652,4659 34th St N,'222070000,38.9131069&-77.129605,"Arlington, Virginia",
http://www.redfin.com/VA/Arlington/1110-18th-St-S-22202/home/11276724,1110 18th St S,'222020000,38.8566626&-77.0657543,"Arlington, Virginia",Addison Heights
http://www.redfin.com/VA/Arlington/2527-S-Kenmore-Ct-22206/home/28681802,2527 Kenmore Ct,'222060000,38.8462168&-77.085183,"Arlington, Virginia",Shirlington Crest
http://www.redfin.com/VA/Arlington/3942-9th-Rd-S-22204/home/11261592,3942 9th Rd S,'222040000,38.8605986&-77.0962023,"Arlington, Virginia",Dundree Knolls
http://www.redfin.com/VA/Arlington/2353-S-Meade-St-22202/home/11277637,2353 Meade St S,'222020000,38.8510411&-77.0681251,"Arlington, Virginia",Club Manor Est
http://www.redfin.com/VA/Arlington/1924-S-Langley-St-22204/home/11271502,1924 Langley St,'222040000,38.8522958&-77.0889555,"Arlington, Virginia",Nauck
http://www.redfin.com/VA/Arlington/969-S-Randolph-St-22204/home/18395475,969 Randolph St S,'222040000,38.8596256&-77.1002295,"Arlington, Virginia",Alcova Row
http://www.redfin.com/VA/Arlington/829-S-Utah-St-22204/home/109522279,829 Utah St S,'222040000,38.8596929&-77.1060209,"Arlington, Virginia",Belmont Pointe
http://www.redfin.com/VA/Arlington/3923-7th-St-S-22204/home/11260954,3923 7th St S,'222040000,38.863995&-77.100115,"Arlington, Virginia",Alcova Heights
http://www.redfin.com/VA/Arlington/3020-S-Hill-St-22202/home/11277050,3020 Hill St,'222020000,38.8455319&-77.0608697,"Arlington, Virginia",Aurora Hills
http://www.redfin.com/VA/Arlington/2840-S-Meade-St-22206/home/11277807,2840 Meade St,'222060000,38.845323&-77.070373,"Arlington, Virginia",Olde Factory
http://www.redfin.com/VA/Arlington/825-S-Utah-St-22204/home/109522288,825 Utah St S,'222040000,38.8600309&-77.1061353,"Arlington, Virginia",Belmont Pointe
http://www.redfin.com/VA/Arlington/2224-N-Tuckahoe-St-22205/home/11239177,2224 Tuckahoe St N,'222050000,38.8887349&-77.157999,"Arlington, Virginia",Tuckahoe Park
http://www.redfin.com/VA/Arlington/5731-28th-St-N-22207/home/109522363,5731 28th St N,'222070000,38.8997662&-77.1463798,"Arlington, Virginia",Lexington Hill
http://www.redfin.com/VA/Arlington/4923-7th-Rd-S-22204/unit-4923/home/82079038,4923 7th Rd S #4923,'222040000,38.8598498&-77.115834,"Arlington, Virginia",Forest Knolls
http://www.redfin.com/VA/Arlington/6812-31st-St-N-22213/home/114033466,6812 31st St N,'222130000,38.8968695&-77.1671795,"Arlington, Virginia",West Arlington
http://www.redfin.com/VA/Arlington/2314-N-Harrison-St-22205/home/11236467,2314 Harrison St N,'222050000,38.8955492&-77.1368614,"Arlington, Virginia",Tara / Leeway Heights
http://www.redfin.com/VA/Arlington/6204-22nd-Rd-N-22205/home/11238877,6204 22nd Rd N,'222050000,38.890072&-77.1499294,"Arlington, Virginia",Overlee Knolls
http://www.redfin.com/VA/Arlington/2815-16th-Rd-S-22204/unit-2815B/home/114093517,2815-B 16th Rd S Unit 2815B,'222040000,38.8566792&-77.0857121,"Arlington, Virginia",Arlington Court Condo
http://www.redfin.com/VA/Arlington/2424-N-Potomac-St-22207/home/11225957,2424 Potomac St N,'222070000,38.8936963&-77.1526979,"Arlington, Virginia",Berkshire Oakwood
http://www.redfin.com/VA/Arlington/3723-16th-St-S-22204/home/11263820,3723 16th St S,'222040000,38.8551665&-77.0939663,"Arlington, Virginia",Douglas Park
http://www.redfin.com/VA/Arlington/3625-N-Lancaster-St-22207/home/11228329,3625 Lancaster St,'222070000,38.9079352&-77.1524325,"Arlington, Virginia",Williamsburg Village
http://www.redfin.com/VA/Arlington/824-S-Courthouse-Rd-22204/home/11263375,824 S Courthouse Rd,'222040000,38.8658164&-77.0809497,"Arlington, Virginia",Arlington Heights
http://www.redfin.com/VA/Arlington/901-N-Monroe-St-22201/unit-1001/home/11278114,901 Monroe St N #1001,'222010000,38.8831242&-77.1026914,"Arlington, Virginia",Virginia Square Condo
http://www.redfin.com/VA/Arlington/879-N-Lebanon-St-22205/home/11240972,879 Lebanon St,'222050000,38.8746428&-77.141643,"Arlington, Virginia",Dominion Hills
http://www.redfin.com/VA/Arlington/1901-N-Oakland-St-22207/home/11234080,1901 N Oakland St,'222070000,38.8940128&-77.1060371,"Arlington, Virginia",
http://www.redfin.com/VA/Arlington/800-S-Ivy-St-22204/home/11263068,800 Ivy St,'222040000,38.8650667&-77.0916621,"Arlington, Virginia",Arlington Heights
http://www.redfin.com/VA/Arlington/4048-N-Aberdeen-St-22207/home/11230528,4048 Aberdeen St,'222070000,38.9200207&-77.1374715,"Arlington, Virginia",Black Oak Cluster
http://www.redfin.com/VA/Arlington/6219-22nd-Rd-N-22205/home/11238872,6219 22nd Rd N,'222050000,38.8906003&-77.1506159,"Arlington, Virginia",Over Lee Knolls
http://www.redfin.com/VA/Arlington/5138-16th-St-N-22205/home/11237039,5138 16th St N,'222050000,38.8875765&-77.127218,"Arlington, Virginia",Waycroft-woodlawn
http://www.redfin.com/VA/Arlington/6614-32nd-St-N-22213/home/11224748,6614 32nd St N,'222130000,38.8986614&-77.1643645,"Arlington, Virginia",Berkshire Oakwood
http://www.redfin.com/VA/Arlington/2807-John-Marshall-Dr-22207/home/11225202,2807 John Marshall Dr,'222070000,38.899613&-77.1480011,"Arlington, Virginia",Lexington Village
http://www.redfin.com/VA/Arlington/1916-N-Wayne-St-22201/home/11246854,1916 Wayne St N,'222010000,38.8961474&-77.0882187,"Arlington, Virginia",Clark & Hilton
http://www.redfin.com/VA/Arlington/2500-S-Arlington-Mill-Dr-22206/unit-3/home/143715873,2500-C Arlington Mill Dr #3,'222060000,38.8432106&-77.0951474,"Arlington, Virginia",Windgate Village Ii
http://www.redfin.com/VA/Arlington/21-N-Greenbrier-St-22203/home/11243572,21 Greenbrier St N,'222030000,38.8677225&-77.1227262,"Arlington, Virginia",Arlington Forest
http://www.redfin.com/VA/Arlington/3008-12th-St-S-22204/home/11273772,3008 12th St S,'222040000,38.860285&-77.087815,"Arlington, Virginia",Columbia Pike
http://www.redfin.com/VA/Arlington/4145-S-Four-Mile-Run-Dr-22204/unit-B/home/16897058,4145 Four Mile Run Dr Unit B,'222040000,38.8492892&-77.0980962,"Arlington, Virginia",West Village At Shirlington
http://www.redfin.com/VA/Arlington/5520-18th-Rd-N-22205/home/11236874,5520 18th Rd N,'222050000,38.8896894&-77.1352831,"Arlington, Virginia",Tara
http://www.redfin.com/VA/Arlington/5716-5th-St-N-22205/home/22101707,5716 5th St N,'222050000,38.871177&-77.1292743,"Arlington, Virginia",Bon Air
http://www.redfin.com/VA/Arlington/5919-10th-Rd-N-22205/home/11240896,5919 10th Rd N,'222050000,38.8783764&-77.1398645,"Arlington, Virginia",Dominion Hills
